{"type":"FeatureCollection","features":[{"type":"Feature","geometry":{"type":"Polygon","coordinates":[[[115.324734,38.248184,0],[115.34953,38.248117,0],[115.356194,38.271764,0],[115.369072,38.283451,0],[115.393611,38.285588,0],[115.383104,38.299076,0],[115.381822,38.327578,0],[115.402453,38.320103,0],[115.420906,38.337922,0],[115.462104,38.327311,0],[115.478122,38.341658,0],[115.495101,38.342993,0],[115.494781,38.362006,0],[115.516822,38.357337,0],[115.516437,38.318168,0],[115.547704,38.318168,0],[115.550908,38.332917,0],[115.575768,38.326377,0],[115.57942,38.342859,0],[115.590504,38.332784,0],[115.644965,38.32611,0],[115.650155,38.340791,0],[115.699811,38.349932,0],[115.705321,38.367543,0],[115.731462,38.392618,0],[115.715957,38.438411,0],[115.718584,38.449205,0],[115.745686,38.481311,0],[115.770418,38.48817,0],[115.79137,38.512005,0],[115.816101,38.52545,0],[115.875047,38.510141,0],[115.869345,38.524652,0],[115.878507,38.535566,0],[115.890809,38.52585,0],[115.940721,38.530508,0],[115.934058,38.546678,0],[115.960583,38.584394,0],[115.96321,38.613182,0],[115.951101,38.627938,0],[115.973398,38.635514,0],[115.973526,38.668467,0],[115.959879,38.679891,0],[115.955009,38.702932,0],[115.966286,38.708973,0],[115.944053,38.735456,0],[115.95187,38.746736,0],[115.995118,38.77798,0],[115.999731,38.796812,0],[116.023054,38.812524,0],[116.04093,38.812259,0],[116.035548,38.829492,0],[116.048746,38.8607,0],[116.04157,38.878451,0],[116.045543,38.897786,0],[116.085524,38.91063,0],[116.112754,38.909703,0],[116.125633,38.920823,0],[116.121083,38.934391,0],[116.15203,38.948352,0],[116.209503,38.921618,0],[116.230262,38.92453,0],[116.228083,38.942199,0],[116.243653,38.949345,0],[116.253007,38.932074,0],[116.291386,38.948683,0],[116.298755,38.975076,0],[116.316182,38.962708,0],[116.33534,38.984004,0],[116.3215,38.998088,0],[116.299588,38.993658,0],[116.293757,39.007344,0],[116.307148,39.032196,0],[116.318617,39.037416,0],[116.317592,39.077911,0],[116.305354,39.098116,0],[116.28184,39.107623,0],[116.263131,39.127292,0],[116.262426,39.138114,0],[116.221804,39.147813,0],[116.207837,39.168526,0],[116.206555,39.207429,0],[116.186116,39.222457,0],[116.201109,39.251911,0],[116.208734,39.330195,0],[116.198226,39.351315,0],[116.13582,39.351842,0],[116.116791,39.376243,0],[116.133001,39.4055,0],[116.132104,39.429423,0],[116.151325,39.471005,0],[116.179901,39.486568,0],[116.182144,39.49635,0],[116.220843,39.511644,0],[116.222766,39.501995,0],[116.244678,39.517354,0],[116.246152,39.557178,0],[116.221164,39.578951,0],[116.19688,39.588982,0],[116.151774,39.583409,0],[116.149595,39.573049,0],[116.121468,39.574951,0],[116.036188,39.571672,0],[116.026193,39.587409,0],[115.995182,39.577049,0],[115.991018,39.593768,0],[115.978459,39.595669,0],[115.978139,39.572852,0],[115.959558,39.560851,0],[115.937966,39.577442,0],[115.923742,39.597308,0],[115.910223,39.600847,0],[115.915605,39.58295,0],[115.907852,39.566885,0],[115.89004,39.567869,0],[115.882992,39.548126,0],[115.855506,39.555014,0],[115.846023,39.543272,0],[115.819241,39.53074,0],[115.82033,39.509741,0],[115.752542,39.515385,0],[115.738574,39.546289,0],[115.71711,39.560392,0],[115.692058,39.56577,0],[115.697889,39.579344,0],[115.685331,39.603666,0],[115.667134,39.615594,0],[115.664507,39.604649,0],[115.633176,39.597701,0],[115.61844,39.604059,0],[115.587044,39.589965,0],[115.545974,39.61874,0],[115.515925,39.591211,0],[115.513041,39.611727,0],[115.523421,39.620378,0],[115.52246,39.639969,0],[115.506698,39.652153,0],[115.478507,39.650319,0],[115.491065,39.66846,0],[115.499266,39.69622,0],[115.482351,39.742483,0],[115.466717,39.740456,0],[115.439871,39.752099,0],[115.434105,39.782309,0],[115.457171,39.781982,0],[115.483761,39.798717,0],[115.505289,39.784597,0],[115.55488,39.795579,0],[115.569168,39.814206,0],[115.514323,39.837726,0],[115.526625,39.875538,0],[115.51003,39.881479,0],[115.523037,39.898907,0],[115.487285,39.923834,0],[115.480685,39.935838,0],[115.438462,39.952534,0],[115.426801,39.950056,0],[115.40162,39.903802,0],[115.399891,39.891336,0],[115.364523,39.885331,0],[115.365676,39.867507,0],[115.343251,39.837857,0],[115.345237,39.821851,0],[115.330052,39.80656,0],[115.342867,39.79205,0],[115.312945,39.783551,0],[115.283216,39.745165,0],[115.250859,39.73882,0],[115.215043,39.708067,0],[115.177625,39.700475,0],[115.179163,39.679592,0],[115.168847,39.672651,0],[115.138734,39.688627,0],[115.095293,39.704795,0],[115.050058,39.709245,0],[115.03199,39.702373,0],[115.011487,39.674746,0],[114.987396,39.67802,0],[114.961895,39.666103,0],[114.936331,39.66368,0],[114.891032,39.634728,0],[114.838429,39.589179,0],[114.821642,39.61022,0],[114.783775,39.609499,0],[114.760645,39.617036,0],[114.716756,39.618674,0],[114.712079,39.594358,0],[114.680748,39.588064,0],[114.654991,39.599209,0],[114.633527,39.555866,0],[114.604887,39.567869,0],[114.58432,39.585835,0],[114.563432,39.558162,0],[114.557345,39.531987,0],[114.536586,39.512891,0],[114.532678,39.486174,0],[114.502308,39.477112,0],[114.496798,39.438556,0],[114.470913,39.408787,0],[114.469503,39.355196,0],[114.47969,39.351118,0],[114.46662,39.329669,0],[114.438236,39.319139,0],[114.425101,39.285105,0],[114.437018,39.25942,0],[114.415939,39.242885,0],[114.436314,39.229641,0],[114.467389,39.225884,0],[114.475974,39.215867,0],[114.469695,39.193321,0],[114.453165,39.192662,0],[114.443618,39.174132,0],[114.417989,39.171626,0],[114.388196,39.176968,0],[114.360773,39.133957,0],[114.369679,39.107557,0],[114.349176,39.076788,0],[114.320215,39.070712,0],[114.300097,39.079231,0],[114.22635,39.066485,0],[114.197005,39.050432,0],[114.180923,39.049111,0],[114.157217,39.061134,0],[114.126654,39.050895,0],[114.108714,39.052282,0],[114.096797,39.083722,0],[114.078793,39.095343,0],[114.065274,39.093494,0],[114.050793,39.13587,0],[114.006456,39.12287,0],[113.995115,39.095475,0],[113.961733,39.100823,0],[113.942896,39.08742,0],[113.930274,39.063446,0],[113.898046,39.067607,0],[113.884399,39.051688,0],[113.830514,39.011773,0],[113.806808,38.989691,0],[113.776758,38.98698,0],[113.767532,38.959665,0],[113.775156,38.919103,0],[113.776181,38.885669,0],[113.801297,38.85487,0],[113.83564,38.842547,0],[113.855566,38.828962,0],[113.853644,38.810138,0],[113.836537,38.79595,0],[113.839548,38.758413,0],[113.864664,38.746006,0],[113.883245,38.74667,0],[113.932324,38.71362,0],[113.929697,38.702467,0],[113.964617,38.699811,0],[113.991655,38.676769,0],[114.028624,38.688524,0],[114.052139,38.686399,0],[114.086097,38.65837,0],[114.125053,38.659632,0],[114.129153,38.669596,0],[114.182205,38.67657,0],[114.212831,38.688192,0],[114.311502,38.706517,0],[114.341167,38.690184,0],[114.366411,38.6862,0],[114.413504,38.703928,0],[114.437787,38.692773,0],[114.452652,38.699413,0],[114.498463,38.678297,0],[114.522106,38.65372,0],[114.53633,38.649268,0],[114.536907,38.632324,0],[114.552284,38.612983,0],[114.527616,38.590644,0],[114.56324,38.590644,0],[114.58432,38.596429,0],[114.595724,38.568897,0],[114.635257,38.514801,0],[114.651851,38.504682,0],[114.6737,38.473452,0],[114.702084,38.489102,0],[114.731237,38.48191,0],[114.765259,38.496626,0],[114.81075,38.492365,0],[114.830868,38.46033,0],[114.819143,38.449871,0],[114.837852,38.435745,0],[114.840992,38.460797,0],[114.858163,38.448605,0],[114.853998,38.435879,0],[114.882254,38.424149,0],[114.910381,38.393751,0],[114.923388,38.388217,0],[114.932871,38.344194,0],[114.942994,38.343193,0],[114.922875,38.315631,0],[114.906986,38.309624,0],[114.902565,38.294936,0],[114.883343,38.284854,0],[114.886162,38.265286,0],[114.915059,38.263348,0],[114.927681,38.283385,0],[114.970096,38.281114,0],[114.990087,38.272165,0],[114.989062,38.258138,0],[115.031862,38.267089,0],[115.056465,38.258472,0],[115.066204,38.264684,0],[115.056722,38.288326,0],[115.073765,38.293134,0],[115.085874,38.276773,0],[115.108107,38.264551,0],[115.152317,38.256802,0],[115.168591,38.259608,0],[115.19422,38.236759,0],[115.210174,38.236491,0],[115.225871,38.269894,0],[115.252205,38.29093,0],[115.265788,38.287658,0],[115.263994,38.260543,0],[115.273605,38.2403,0],[115.302758,38.235289,0],[115.324734,38.248184,0]]]},"properties":{"name":"保定市","_color":"#80f2e6","center":[115.2150285919003,39.03679755140185,0]}},{"type":"Feature","geometry":{"type":"Polygon","coordinates":[[[116.335916,37.581263,0],[116.343541,37.566025,0],[116.367696,37.566295,0],[116.376858,37.546602,0],[116.368913,37.526364,0],[116.402167,37.509833,0],[116.434139,37.473383,0],[116.456115,37.513679,0],[116.486421,37.524205,0],[116.517048,37.557191,0],[116.538512,37.568453,0],[116.545816,37.582477,0],[116.574648,37.609978,0],[116.604506,37.62514,0],[116.640834,37.666432,0],[116.641027,37.682323,0],[116.663964,37.687776,0],[116.67979,37.728764,0],[116.699332,37.730648,0],[116.724512,37.744305,0],[116.723167,37.766703,0],[116.744182,37.757355,0],[116.753793,37.770536,0],[116.753665,37.792993,0],[116.786149,37.82633,0],[116.788136,37.843396,0],[116.812739,37.843598,0],[116.84375,37.834461,0],[116.883795,37.844337,0],[116.919355,37.845882,0],[116.947675,37.840037,0],[116.976635,37.841045,0],[117.027188,37.832378,0],[117.074345,37.848771,0],[117.093759,37.849509,0],[117.150142,37.839567,0],[117.185317,37.849778,0],[117.208832,37.843732,0],[117.271366,37.839903,0],[117.320124,37.861399,0],[117.34428,37.862675,0],[117.381954,37.854547,0],[117.406301,37.843531,0],[117.438593,37.853876,0],[117.481137,37.914842,0],[117.512789,37.943428,0],[117.527974,37.996275,0],[117.56033,38.040978,0],[117.556486,38.05719,0],[117.58378,38.070653,0],[117.616713,38.069046,0],[117.666048,38.072528,0],[117.679504,38.07956,0],[117.704492,38.076078,0],[117.729223,38.093822,0],[117.743191,38.123409,0],[117.76882,38.131908,0],[117.766962,38.15867,0],[117.801625,38.173786,0],[117.789195,38.180741,0],[117.808544,38.228406,0],[117.8475,38.25393,0],[117.860891,38.274569,0],[117.895682,38.301613,0],[117.916698,38.32344,0],[117.948349,38.346462,0],[117.958024,38.376147,0],[117.937457,38.38775,0],[117.846411,38.36801,0],[117.804764,38.367076,0],[117.781186,38.373812,0],[117.730505,38.424949,0],[117.725123,38.457333,0],[117.710899,38.467791,0],[117.678799,38.477049,0],[117.647852,38.508677,0],[117.645161,38.527647,0],[117.685975,38.532438,0],[117.68527,38.539425,0],[117.643367,38.54029,0],[117.638562,38.570028,0],[117.645033,38.593836,0],[117.63901,38.626742,0],[117.557831,38.613781,0],[117.541429,38.60361,0],[117.478895,38.617237,0],[117.432442,38.601349,0],[117.391949,38.572689,0],[117.369075,38.564773,0],[117.368883,38.582465,0],[117.358055,38.57056,0],[117.305644,38.556591,0],[117.292189,38.562445,0],[117.253169,38.556192,0],[117.238369,38.581002,0],[117.259512,38.603078,0],[117.255988,38.613781,0],[117.23068,38.624017,0],[117.23036,38.641694,0],[117.186086,38.616506,0],[117.151103,38.617702,0],[117.13611,38.598756,0],[117.098179,38.586921,0],[117.086326,38.606402,0],[117.071526,38.607399,0],[117.064285,38.635713,0],[117.051727,38.643488,0],[117.06813,38.680621,0],[117.039041,38.688457,0],[117.042309,38.706517,0],[117.015719,38.700409,0],[117.014502,38.690184,0],[116.994447,38.695695,0],[116.87726,38.680688,0],[116.866496,38.717005,0],[116.867457,38.745873,0],[116.859127,38.741295,0],[116.796529,38.74667,0],[116.766351,38.741959,0],[116.758855,38.732071,0],[116.77404,38.652258,0],[116.763212,38.633853,0],[116.738224,38.631327,0],[116.733739,38.614047,0],[116.71503,38.609327,0],[116.702792,38.619098,0],[116.680559,38.605936,0],[116.680303,38.592706,0],[116.662234,38.581268,0],[116.671653,38.566503,0],[116.643333,38.564773,0],[116.652431,38.551202,0],[116.672678,38.546545,0],[116.668257,38.530042,0],[116.647114,38.50648,0],[116.621228,38.514335,0],[116.627315,38.501087,0],[116.610593,38.479646,0],[116.589897,38.483908,0],[116.569715,38.470988,0],[116.559399,38.496759,0],[116.519482,38.48817,0],[116.465726,38.494096,0],[116.449772,38.518262,0],[116.452655,38.534501,0],[116.431127,38.539558,0],[116.432152,38.552533,0],[116.455475,38.557656,0],[116.454834,38.580337,0],[116.425425,38.587187,0],[116.41921,38.599288,0],[116.381984,38.619165,0],[116.366863,38.67305,0],[116.370836,38.692508,0],[116.406331,38.703596,0],[116.435804,38.733199,0],[116.42299,38.770419,0],[116.390313,38.789784,0],[116.338287,38.80689,0],[116.271973,38.816634,0],[116.278764,38.836451,0],[116.247497,38.848907,0],[116.248907,38.85964,0],[116.23212,38.871894,0],[116.212194,38.870238,0],[116.202198,38.887258,0],[116.20002,38.915727,0],[116.209503,38.921618,0],[116.15203,38.948352,0],[116.121083,38.934391,0],[116.125633,38.920823,0],[116.112754,38.909703,0],[116.085524,38.91063,0],[116.045543,38.897786,0],[116.04157,38.878451,0],[116.048746,38.8607,0],[116.035548,38.829492,0],[116.04093,38.812259,0],[116.023054,38.812524,0],[115.999731,38.796812,0],[115.995118,38.77798,0],[115.95187,38.746736,0],[115.944053,38.735456,0],[115.966286,38.708973,0],[115.955009,38.702932,0],[115.959879,38.679891,0],[115.973526,38.668467,0],[115.973398,38.635514,0],[115.951101,38.627938,0],[115.96321,38.613182,0],[115.960583,38.584394,0],[115.934058,38.546678,0],[115.940721,38.530508,0],[115.890809,38.52585,0],[115.878507,38.535566,0],[115.869345,38.524652,0],[115.875047,38.510141,0],[115.816101,38.52545,0],[115.79137,38.512005,0],[115.770418,38.48817,0],[115.745686,38.481311,0],[115.718584,38.449205,0],[115.715957,38.438411,0],[115.731462,38.392618,0],[115.705321,38.367543,0],[115.734025,38.359205,0],[115.738767,38.369544,0],[115.783297,38.358338,0],[115.804633,38.345462,0],[115.841538,38.346062,0],[115.850188,38.309423,0],[115.833016,38.298008,0],[115.837181,38.272499,0],[115.864476,38.255266,0],[115.856467,38.240901,0],[115.871267,38.217579,0],[115.899523,38.20314,0],[115.887542,38.171312,0],[115.900804,38.158536,0],[115.935403,38.167232,0],[115.938671,38.144354,0],[115.968913,38.138533,0],[115.986725,38.125885,0],[116.049771,38.146026,0],[116.055218,38.131306,0],[116.048554,38.11424,0],[116.031831,38.100718,0],[116.031511,38.082774,0],[116.055474,38.071725,0],[116.05227,38.052434,0],[116.070595,38.041112,0],[116.049515,38.038365,0],[116.042467,38.026706,0],[116.062394,38.005057,0],[116.071876,37.980318,0],[116.100645,37.948929,0],[116.120571,37.948996,0],[116.093981,37.922627,0],[116.091034,37.910949,0],[116.153952,37.914573,0],[116.170867,37.933565,0],[116.170163,37.959594,0],[116.188039,37.968314,0],[116.209118,37.966369,0],[116.226354,37.95121,0],[116.256595,37.965229,0],[116.266206,37.961405,0],[116.266975,37.981458,0],[116.278252,37.962479,0],[116.306764,37.979312,0],[116.329189,38.008141,0],[116.343925,38.017256,0],[116.3709,38.018597,0],[116.417224,38.009481,0],[116.479309,38.011492,0],[116.483474,38.02503,0],[116.496352,38.013704,0],[116.563243,38.01987,0],[116.565166,37.980116,0],[116.53377,37.907727,0],[116.515382,37.892892,0],[116.51346,37.863951,0],[116.473415,37.865495,0],[116.481424,37.830026,0],[116.466623,37.805564,0],[116.47303,37.777059,0],[116.460664,37.778875,0],[116.451182,37.7587,0],[116.438367,37.758902,0],[116.434331,37.734618,0],[116.424784,37.735829,0],[116.386533,37.696393,0],[116.378909,37.659698,0],[116.36539,37.648719,0],[116.374936,37.63949,0],[116.375192,37.617256,0],[116.3281,37.605058,0],[116.335916,37.581263,0]]]},"properties":{"name":"沧州市","_color":"#110c9b","center":[116.64720511913359,38.283547148014414,0]}},{"type":"Feature","geometry":{"type":"Polygon","coordinates":[[[119.158474,40.614418,0],[119.146557,40.63579,0],[119.173211,40.654316,0],[119.185833,40.67574,0],[119.176222,40.690191,0],[119.153349,40.688707,0],[119.115098,40.666513,0],[119.095107,40.663351,0],[119.081588,40.671869,0],[119.05423,40.664964,0],[119.048719,40.681482,0],[119.027063,40.692448,0],[119.010725,40.687868,0],[118.987723,40.697931,0],[118.960813,40.720566,0],[118.949344,40.747834,0],[118.91167,40.756083,0],[118.895459,40.754021,0],[118.910965,40.776766,0],[118.878544,40.783207,0],[118.861501,40.802658,0],[118.849135,40.800919,0],[118.846252,40.822103,0],[118.855094,40.840577,0],[118.873034,40.848042,0],[118.891743,40.903362,0],[118.903468,40.961784,0],[118.917052,40.968594,0],[118.946461,40.958122,0],[119.000601,40.967052,0],[119.005086,40.984265,0],[119.0204,40.997878,0],[119.013544,41.007637,0],[118.951971,41.018421,0],[118.936209,41.037482,0],[118.93685,41.052624,0],[118.964657,41.079307,0],[119.008354,41.068596,0],[119.037507,41.067378,0],[119.050834,41.080333,0],[119.073771,41.084244,0],[119.080627,41.095978,0],[119.081204,41.131422,0],[119.126374,41.138662,0],[119.158603,41.169664,0],[119.184295,41.182727,0],[119.188909,41.198156,0],[119.166483,41.21294,0],[119.169623,41.222923,0],[119.209796,41.225803,0],[119.20954,41.244483,0],[119.231004,41.256444,0],[119.248367,41.27665,0],[119.239461,41.314489,0],[119.212103,41.308099,0],[119.200698,41.28234,0],[119.154951,41.297682,0],[119.093121,41.293655,0],[119.035136,41.298768,0],[119.006752,41.307076,0],[118.974716,41.306565,0],[118.949536,41.318003,0],[118.934671,41.304584,0],[118.890718,41.300749,0],[118.868421,41.312636,0],[118.844907,41.34247,0],[118.846124,41.373823,0],[118.770007,41.353071,0],[118.763343,41.328928,0],[118.741879,41.324073,0],[118.695171,41.337999,0],[118.676974,41.350453,0],[118.629946,41.34643,0],[118.57997,41.354029,0],[118.539796,41.3509,0],[118.528135,41.355051,0],[118.500841,41.345791,0],[118.47329,41.345663,0],[118.412422,41.33193,0],[118.399607,41.311102,0],[118.380193,41.312124,0],[118.349119,41.342789,0],[118.348286,41.373886,0],[118.361741,41.386717,0],[118.343993,41.404139,0],[118.34867,41.428318,0],[118.327078,41.450831,0],[118.272168,41.471296,0],[118.269605,41.478881,0],[118.295426,41.485127,0],[118.315801,41.512525,0],[118.302923,41.552709,0],[118.313302,41.561494,0],[118.301577,41.569641,0],[118.279152,41.56544,0],[118.270823,41.573524,0],[118.230522,41.582178,0],[118.215337,41.595668,0],[118.20989,41.61774,0],[118.215208,41.633002,0],[118.206879,41.65074,0],[118.169013,41.67076,0],[118.153699,41.691156,0],[118.155173,41.712624,0],[118.130698,41.742275,0],[118.140372,41.783965,0],[118.165873,41.813265,0],[118.219117,41.815358,0],[118.236032,41.807559,0],[118.246988,41.774005,0],[118.270823,41.762203,0],[118.292287,41.772863,0],[118.319838,41.83146,0],[118.331755,41.840651,0],[118.340213,41.872459,0],[118.324515,41.880187,0],[118.286649,41.91109,0],[118.270182,41.917357,0],[118.268901,41.930143,0],[118.306511,41.940269,0],[118.306255,41.975127,0],[118.314007,41.987774,0],[118.294722,42.005224,0],[118.256278,42.010724,0],[118.237634,42.022859,0],[118.283061,42.03158,0],[118.297284,42.048765,0],[118.272232,42.083311,0],[118.252498,42.091014,0],[118.226613,42.090256,0],[118.212581,42.081101,0],[118.220206,42.058619,0],[118.204188,42.034866,0],[118.189067,42.030569,0],[118.141846,42.031327,0],[118.116538,42.037204,0],[118.115256,42.045859,0],[118.136913,42.052871,0],[118.155173,42.081164,0],[118.136528,42.094486,0],[118.097765,42.10509,0],[118.088859,42.117144,0],[118.104172,42.148878,0],[118.10635,42.171958,0],[118.089051,42.183874,0],[118.033629,42.199127,0],[118.020366,42.213432,0],[117.977438,42.229875,0],[117.971095,42.248014,0],[118.023249,42.267155,0],[118.047468,42.280563,0],[118.059962,42.29831,0],[118.016265,42.333286,0],[118.009153,42.358248,0],[118.021263,42.371636,0],[118.019405,42.395201,0],[117.99762,42.416684,0],[117.954564,42.445003,0],[117.940148,42.462766,0],[117.87409,42.510194,0],[117.849614,42.546619,0],[117.829624,42.56498,0],[117.797588,42.585277,0],[117.792334,42.598367,0],[117.801496,42.612706,0],[117.779904,42.618591,0],[117.707247,42.588033,0],[117.66733,42.582459,0],[117.6442,42.589787,0],[117.610883,42.592355,0],[117.600311,42.603001,0],[117.539955,42.605443,0],[117.524898,42.590727,0],[117.473512,42.602437,0],[117.455957,42.589411,0],[117.435197,42.585403,0],[117.44436,42.577447,0],[117.433147,42.555769,0],[117.39637,42.536339,0],[117.387015,42.517405,0],[117.408415,42.519976,0],[117.416296,42.512326,0],[117.412836,42.472493,0],[117.390732,42.462076,0],[117.330056,42.461887,0],[117.321406,42.468791,0],[117.275466,42.481905,0],[117.252208,42.473685,0],[117.222287,42.475442,0],[117.175963,42.465527,0],[117.135726,42.469167,0],[117.094912,42.483661,0],[117.079535,42.460632,0],[117.046922,42.454105,0],[117.016744,42.45649,0],[117.006685,42.432948,0],[116.965102,42.421583,0],[116.914421,42.402677,0],[116.911858,42.391431,0],[116.886806,42.366608,0],[116.897442,42.297618,0],[116.918522,42.229875,0],[116.917433,42.207698,0],[116.903401,42.19087,0],[116.858166,42.197236,0],[116.789225,42.200261,0],[116.825169,42.155563,0],[116.850221,42.15632,0],[116.865022,42.124085,0],[116.877324,42.121057,0],[116.890651,42.092655,0],[116.881681,42.05224,0],[116.87963,42.018372,0],[116.868161,42.002885,0],[116.831961,42.005351,0],[116.821133,41.988723,0],[116.796209,41.978099,0],[116.766479,41.990304,0],[116.744631,41.982146,0],[116.72746,41.951089,0],[116.669154,41.947735,0],[116.634812,41.929953,0],[116.597073,41.935586,0],[116.566383,41.928751,0],[116.533706,41.938876,0],[116.514164,41.970067,0],[116.496416,41.97968,0],[116.482641,41.975886,0],[116.453873,41.945964,0],[116.432088,41.939383,0],[116.393133,41.94299,0],[116.41402,41.98221,0],[116.409087,41.994034,0],[116.373719,42.009965,0],[116.327267,42.005667,0],[116.306507,41.991379,0],[116.29837,41.968106,0],[116.28421,41.959376,0],[116.233401,41.941408,0],[116.230518,41.926282,0],[116.211361,41.906848,0],[116.212578,41.885128,0],[116.193164,41.861816,0],[116.171124,41.868912,0],[116.134731,41.863844,0],[116.106667,41.849587,0],[116.105706,41.834757,0],[116.129221,41.806607,0],[116.098658,41.776479,0],[116.081039,41.776352,0],[116.056307,41.733705,0],[116.014404,41.715355,0],[115.972885,41.680101,0],[115.909967,41.642921,0],[115.929252,41.596113,0],[115.924767,41.568623,0],[115.958789,41.550353,0],[115.97391,41.529659,0],[115.982112,41.485127,0],[115.97673,41.470913,0],[116.000052,41.454402,0],[116.004473,41.432911,0],[116.03023,41.416645,0],[116.036124,41.397694,0],[116.07713,41.384866,0],[116.08751,41.376951,0],[116.141586,41.373439,0],[116.17484,41.356328,0],[116.203352,41.326117,0],[116.209503,41.307715,0],[116.191627,41.288158,0],[116.198995,41.259578,0],[116.213603,41.233288,0],[116.235195,41.211853,0],[116.221356,41.185928,0],[116.22347,41.174275,0],[116.245895,41.16358,0],[116.233273,41.130845,0],[116.245447,41.114183,0],[116.268769,41.102645,0],[116.277419,41.083154,0],[116.296128,41.062118,0],[116.264733,41.038252,0],[116.29837,40.986641,0],[116.333546,40.984458,0],[116.341747,40.964804,0],[116.365069,40.943216,0],[116.37641,40.939681,0],[116.398515,40.905999,0],[116.41402,40.899762,0],[116.458678,40.900597,0],[116.474184,40.896032,0],[116.473607,40.919757,0],[116.447466,40.953818,0],[116.455539,40.980476,0],[116.516791,40.975274,0],[116.536333,40.988889,0],[116.569715,40.991265,0],[116.597778,40.97476,0],[116.614309,40.982916,0],[116.622958,41.02086,0],[116.614116,41.03607,0],[116.630839,41.060771,0],[116.64769,41.059296,0],[116.665182,41.046658,0],[116.688632,41.044669,0],[116.698884,41.021246,0],[116.683058,41.000511,0],[116.67774,40.971227,0],[116.689465,40.950669,0],[116.722334,40.927406,0],[116.713236,40.911978,0],[116.730471,40.897768,0],[116.759496,40.889858,0],[116.79512,40.863614,0],[116.805051,40.840706,0],[116.813636,40.848428,0],[116.847723,40.839354,0],[116.87617,40.821202,0],[116.880207,40.804332,0],[116.896353,40.79712,0],[116.894623,40.781597,0],[116.923391,40.773738,0],[116.926531,40.744869,0],[116.979967,40.702833,0],[117.031032,40.692126,0],[117.058327,40.701543,0],[117.0771,40.700059,0],[117.110673,40.70825,0],[117.117785,40.700059,0],[117.20236,40.695609,0],[117.241636,40.676643,0],[117.261371,40.681159,0],[117.290395,40.660189,0],[117.32115,40.658317,0],[117.342678,40.673611,0],[117.359208,40.673869,0],[117.409248,40.687288,0],[117.442245,40.676643,0],[117.492862,40.675417,0],[117.514583,40.660511,0],[117.501256,40.636759,0],[117.477997,40.635338,0],[117.46198,40.65309,0],[117.448909,40.628366,0],[117.430264,40.626041,0],[117.412708,40.605118,0],[117.430008,40.576112,0],[117.402072,40.573139,0],[117.387464,40.560861,0],[117.365936,40.575982,0],[117.342742,40.581604,0],[117.311859,40.57805,0],[117.269444,40.560473,0],[117.247403,40.54024,0],[117.264126,40.517285,0],[117.247147,40.511788,0],[117.219019,40.514375,0],[117.208575,40.501115,0],[117.237215,40.468763,0],[117.236511,40.45653,0],[117.263357,40.442352,0],[117.234076,40.417162,0],[117.240675,40.394424,0],[117.228502,40.386389,0],[117.226195,40.369021,0],[117.242277,40.369993,0],[117.260217,40.335762,0],[117.275018,40.33239,0],[117.274377,40.308521,0],[117.293342,40.296713,0],[117.296354,40.278088,0],[117.331465,40.28977,0],[117.339859,40.246213,0],[117.350943,40.229978,0],[117.386375,40.22712,0],[117.415335,40.236862,0],[117.419115,40.249785,0],[117.450062,40.252512,0],[117.484084,40.235304,0],[117.514326,40.227705,0],[117.54617,40.232901,0],[117.571671,40.219261,0],[117.56238,40.206073,0],[117.575451,40.192817,0],[117.609409,40.194897,0],[117.619532,40.206398,0],[117.64625,40.205163,0],[117.677069,40.22095,0],[117.694112,40.238161,0],[117.714551,40.241668,0],[117.75152,40.229718,0],[117.807775,40.261926,0],[117.844104,40.261406,0],[117.867554,40.26965,0],[117.897989,40.270429,0],[117.909457,40.285876,0],[118.000888,40.29256,0],[118.031643,40.302358,0],[118.061564,40.319095,0],[118.079312,40.353528,0],[118.121856,40.354695,0],[118.133837,40.375113,0],[118.165232,40.400449,0],[118.153123,40.409519,0],[118.156967,40.423768,0],[118.173818,40.423056,0],[118.239684,40.464686,0],[118.262942,40.452063,0],[118.277935,40.425711,0],[118.306575,40.419558,0],[118.356295,40.435295,0],[118.360011,40.428819,0],[118.387305,40.436719,0],[118.402683,40.416838,0],[118.430746,40.411851,0],[118.45599,40.414053,0],[118.503211,40.403365,0],[118.523458,40.40628,0],[118.548062,40.422667,0],[118.571512,40.414636,0],[118.550881,40.385482,0],[118.558377,40.36928,0],[118.539989,40.361048,0],[118.532364,40.319419,0],[118.533325,40.298854,0],[118.568949,40.287564,0],[118.580098,40.305861,0],[118.596949,40.308456,0],[118.608225,40.328305,0],[118.640197,40.354566,0],[118.643785,40.380946,0],[118.618349,40.425193,0],[118.624179,40.437626,0],[118.657176,40.450574,0],[118.702795,40.491411,0],[118.723491,40.473746,0],[118.772954,40.479765,0],[118.792112,40.492382,0],[118.794867,40.510753,0],[118.821328,40.531964,0],[118.864,40.527244,0],[118.886938,40.542438,0],[118.919038,40.53093,0],[118.966003,40.536102,0],[118.952676,40.558469,0],[118.983366,40.56364,0],[118.998359,40.578955,0],[119.013095,40.577081,0],[119.063392,40.606151,0],[119.086394,40.588775,0],[119.105487,40.603632,0],[119.158474,40.614418,0]]]},"properties":{"name":"承德市","_color":"#5392bc","center":[117.69682234292037,41.27666182522124,0]}},{"type":"Feature","geometry":{"type":"Polygon","coordinates":[[[115.478314,36.754699,0],[115.463386,36.752177,0],[115.423661,36.766081,0],[115.390664,36.76315,0],[115.362921,36.771056,0],[115.349786,36.786796,0],[115.335691,36.775826,0],[115.323004,36.815474,0],[115.307499,36.837129,0],[115.325567,36.869667,0],[115.283344,36.862589,0],[115.200563,36.868374,0],[115.176856,36.854353,0],[115.158916,36.852038,0],[115.170449,36.881509,0],[115.16622,36.901512,0],[115.143219,36.899131,0],[115.125086,36.90607,0],[115.106505,36.923958,0],[115.125022,36.936471,0],[115.111631,36.958431,0],[115.096702,36.964549,0],[115.0589,36.957004,0],[115.02161,36.961422,0],[114.985602,36.950477,0],[114.949593,36.948778,0],[114.892441,36.969647,0],[114.862712,36.969715,0],[114.836314,36.958024,0],[114.838172,36.950885,0],[114.787492,36.91396,0],[114.772691,36.928447,0],[114.74341,36.932323,0],[114.734568,36.942931,0],[114.718166,36.938103,0],[114.707145,36.918041,0],[114.671073,36.917429,0],[114.64884,36.89845,0],[114.56702,36.891307,0],[114.551707,36.884094,0],[114.555231,36.845979,0],[114.507754,36.827936,0],[114.478921,36.833248,0],[114.462327,36.847681,0],[114.421193,36.839444,0],[114.353533,36.852038,0],[114.336105,36.846728,0],[114.304518,36.857007,0],[114.299969,36.845435,0],[114.252684,36.856531,0],[114.225902,36.843052,0],[114.182653,36.843937,0],[114.100449,36.839035,0],[114.081548,36.845094,0],[114.090005,36.861023,0],[114.063672,36.879331,0],[114.028176,36.881236,0],[113.991078,36.914913,0],[113.984415,36.941503,0],[113.941743,36.983376,0],[113.901185,36.99683,0],[113.883886,37.010893,0],[113.859475,37.015037,0],[113.828784,37.012048,0],[113.794954,36.994995,0],[113.777463,36.96856,0],[113.761701,36.956052,0],[113.79284,36.894709,0],[113.786945,36.870076,0],[113.772337,36.871165,0],[113.742095,36.851085,0],[113.731908,36.859118,0],[113.731587,36.87865,0],[113.710508,36.88736,0],[113.696924,36.882257,0],[113.676293,36.855646,0],[113.68411,36.824804,0],[113.673923,36.807505,0],[113.68097,36.790134,0],[113.65579,36.785706,0],[113.599984,36.752927,0],[113.569165,36.758107,0],[113.549303,36.752313,0],[113.536232,36.732339,0],[113.499391,36.740589,0],[113.47767,36.726407,0],[113.465369,36.70779,0],[113.477542,36.697287,0],[113.507015,36.704858,0],[113.502018,36.681528,0],[113.47703,36.655189,0],[113.486833,36.635189,0],[113.535463,36.62925,0],[113.545266,36.616892,0],[113.539756,36.594082,0],[113.569678,36.585885,0],[113.58813,36.562725,0],[113.588707,36.548101,0],[113.547317,36.534362,0],[113.559939,36.52862,0],[113.554428,36.494706,0],[113.582108,36.482942,0],[113.587233,36.460982,0],[113.6292,36.454687,0],[113.670206,36.425122,0],[113.708329,36.423342,0],[113.729601,36.381642,0],[113.73242,36.357599,0],[113.755166,36.365956,0],[113.764392,36.355612,0],[113.797581,36.347184,0],[113.818212,36.331149,0],[113.855951,36.329367,0],[113.85358,36.35013,0],[113.881515,36.353899,0],[113.901121,36.336974,0],[113.911181,36.314767,0],[113.93162,36.319497,0],[113.934439,36.336151,0],[113.957248,36.33622,0],[113.952763,36.358147,0],[113.964232,36.352597,0],[113.983005,36.317166,0],[113.993833,36.314561,0],[113.994474,36.344169,0],[113.979802,36.344101,0],[113.985824,36.357599,0],[114.010684,36.342456,0],[114.023691,36.354995,0],[114.032276,36.347527,0],[114.026254,36.325117,0],[114.055727,36.329983,0],[114.061557,36.317989,0],[114.04272,36.297011,0],[114.060532,36.276507,0],[114.085328,36.270129,0],[114.092632,36.27781,0],[114.12108,36.272735,0],[114.130627,36.279662,0],[114.17663,36.263132,0],[114.168878,36.243443,0],[114.203028,36.24557,0],[114.211037,36.273009,0],[114.223723,36.270883,0],[114.235577,36.252774,0],[114.256464,36.264024,0],[114.290102,36.247148,0],[114.328353,36.248177,0],[114.345139,36.255792,0],[114.356096,36.230337,0],[114.39236,36.221141,0],[114.408442,36.224573,0],[114.417541,36.205904,0],[114.466171,36.197735,0],[114.480267,36.177823,0],[114.53287,36.171505,0],[114.55805,36.150763,0],[114.586883,36.140939,0],[114.58259,36.121356,0],[114.610845,36.128297,0],[114.630387,36.124243,0],[114.655183,36.140252,0],[114.691128,36.138397,0],[114.692409,36.146229,0],[114.720665,36.140046,0],[114.73444,36.155777,0],[114.771345,36.124517,0],[114.77865,36.133175,0],[114.825166,36.123693,0],[114.857458,36.127747,0],[114.858675,36.144305,0],[114.879435,36.147809,0],[114.912432,36.140458,0],[114.90705,36.117233,0],[114.926463,36.089464,0],[114.914674,36.051988,0],[114.920184,36.048205,0],[114.954591,36.067806,0],[114.998416,36.069732,0],[115.045893,36.112216,0],[115.048456,36.162027,0],[115.06268,36.178235,0],[115.104583,36.172192,0],[115.110414,36.199382,0],[115.142834,36.209679,0],[115.170705,36.191006,0],[115.189222,36.195538,0],[115.20178,36.212768,0],[115.242146,36.191212,0],[115.260406,36.171574,0],[115.279307,36.137847,0],[115.302181,36.127678,0],[115.297247,36.109123,0],[115.313073,36.088227,0],[115.341393,36.087608,0],[115.369264,36.102731,0],[115.377914,36.128503,0],[115.39265,36.12919,0],[115.404632,36.15564,0],[115.415716,36.137572,0],[115.431286,36.149183,0],[115.449674,36.150144,0],[115.451276,36.16972,0],[115.463898,36.171299,0],[115.469985,36.152892,0],[115.483568,36.148976,0],[115.475944,36.193066,0],[115.47652,36.246531,0],[115.465372,36.250373,0],[115.462681,36.276096,0],[115.436347,36.27637,0],[115.417062,36.29276,0],[115.422956,36.32217,0],[115.394637,36.322581,0],[115.366637,36.30894,0],[115.359782,36.318743,0],[115.368688,36.342593,0],[115.349594,36.363079,0],[115.339983,36.398078,0],[115.29744,36.413484,0],[115.312048,36.433541,0],[115.317046,36.454003,0],[115.300259,36.465908,0],[115.291417,36.460572,0],[115.272836,36.497373,0],[115.296479,36.508862,0],[115.288341,36.528484,0],[115.307435,36.527458,0],[115.33127,36.550219,0],[115.334281,36.58247,0],[115.355104,36.627407,0],[115.366061,36.621945,0],[115.388229,36.647203,0],[115.386756,36.656827,0],[115.406426,36.663242,0],[115.420586,36.686781,0],[115.446663,36.694626,0],[115.450507,36.713656,0],[115.478314,36.754699,0]]]},"properties":{"name":"邯郸市","_color":"#2fb55d","center":[114.5493267352941,36.51749944117648,0]}},{"type":"Feature","geometry":{"type":"Polygon","coordinates":[[[115.853904,37.059245,0],[115.864988,37.070785,0],[115.885427,37.128731,0],[115.879981,37.151992,0],[115.911825,37.176195,0],[115.904841,37.189344,0],[115.912017,37.207098,0],[115.940721,37.227558,0],[115.953215,37.223697,0],[115.969425,37.239479,0],[115.964171,37.250721,0],[115.976217,37.276178,0],[115.968272,37.287076,0],[115.98461,37.316175,0],[115.975897,37.334508,0],[116.00947,37.343165,0],[116.024527,37.359937,0],[116.05195,37.357502,0],[116.056179,37.369065,0],[116.08751,37.373324,0],[116.106539,37.368794,0],[116.168817,37.38414,0],[116.195471,37.365684,0],[116.236028,37.361559,0],[116.285236,37.40266,0],[116.263067,37.42239,0],[116.227379,37.424755,0],[116.243076,37.448195,0],[116.229878,37.459676,0],[116.224431,37.479729,0],[116.241346,37.491475,0],[116.276458,37.466901,0],[116.271781,37.478176,0],[116.290233,37.484049,0],[116.278444,37.524745,0],[116.291386,37.5238,0],[116.287863,37.5493,0],[116.335916,37.581263,0],[116.3281,37.605058,0],[116.375192,37.617256,0],[116.374936,37.63949,0],[116.36539,37.648719,0],[116.378909,37.659698,0],[116.386533,37.696393,0],[116.424784,37.735829,0],[116.434331,37.734618,0],[116.438367,37.758902,0],[116.451182,37.7587,0],[116.460664,37.778875,0],[116.47303,37.777059,0],[116.466623,37.805564,0],[116.481424,37.830026,0],[116.473415,37.865495,0],[116.51346,37.863951,0],[116.515382,37.892892,0],[116.53377,37.907727,0],[116.565166,37.980116,0],[116.563243,38.01987,0],[116.496352,38.013704,0],[116.483474,38.02503,0],[116.479309,38.011492,0],[116.417224,38.009481,0],[116.3709,38.018597,0],[116.343925,38.017256,0],[116.329189,38.008141,0],[116.306764,37.979312,0],[116.278252,37.962479,0],[116.266975,37.981458,0],[116.266206,37.961405,0],[116.256595,37.965229,0],[116.226354,37.95121,0],[116.209118,37.966369,0],[116.188039,37.968314,0],[116.170163,37.959594,0],[116.170867,37.933565,0],[116.153952,37.914573,0],[116.091034,37.910949,0],[116.093981,37.922627,0],[116.120571,37.948996,0],[116.100645,37.948929,0],[116.071876,37.980318,0],[116.062394,38.005057,0],[116.042467,38.026706,0],[116.049515,38.038365,0],[116.070595,38.041112,0],[116.05227,38.052434,0],[116.055474,38.071725,0],[116.031511,38.082774,0],[116.031831,38.100718,0],[116.048554,38.11424,0],[116.055218,38.131306,0],[116.049771,38.146026,0],[115.986725,38.125885,0],[115.968913,38.138533,0],[115.938671,38.144354,0],[115.935403,38.167232,0],[115.900804,38.158536,0],[115.887542,38.171312,0],[115.899523,38.20314,0],[115.871267,38.217579,0],[115.856467,38.240901,0],[115.864476,38.255266,0],[115.837181,38.272499,0],[115.833016,38.298008,0],[115.850188,38.309423,0],[115.841538,38.346062,0],[115.804633,38.345462,0],[115.783297,38.358338,0],[115.738767,38.369544,0],[115.734025,38.359205,0],[115.705321,38.367543,0],[115.699811,38.349932,0],[115.650155,38.340791,0],[115.644965,38.32611,0],[115.590504,38.332784,0],[115.57942,38.342859,0],[115.575768,38.326377,0],[115.550908,38.332917,0],[115.547704,38.318168,0],[115.516437,38.318168,0],[115.516822,38.357337,0],[115.494781,38.362006,0],[115.495101,38.342993,0],[115.478122,38.341658,0],[115.462104,38.327311,0],[115.420906,38.337922,0],[115.402453,38.320103,0],[115.381822,38.327578,0],[115.383104,38.299076,0],[115.393611,38.285588,0],[115.369072,38.283451,0],[115.356194,38.271764,0],[115.34953,38.248117,0],[115.324734,38.248184,0],[115.323645,38.220586,0],[115.35094,38.210493,0],[115.342418,38.196254,0],[115.346903,38.13967,0],[115.364843,38.13793,0],[115.383232,38.0886,0],[115.420522,38.089671,0],[115.439871,38.082038,0],[115.468063,38.095161,0],[115.482992,38.08398,0],[115.466782,38.063554,0],[115.45134,38.017323,0],[115.438205,38.001102,0],[115.464219,37.99299,0],[115.444997,37.989168,0],[115.456017,37.974551,0],[115.457555,37.95074,0],[115.448585,37.936584,0],[115.412769,37.943293,0],[115.408668,37.918936,0],[115.385795,37.917191,0],[115.365484,37.906318,0],[115.360294,37.880068,0],[115.389831,37.874629,0],[115.388614,37.853003,0],[115.363049,37.849845,0],[115.360166,37.820215,0],[115.349722,37.805765,0],[115.352349,37.784052,0],[115.371635,37.770335,0],[115.344468,37.74814,0],[115.360294,37.731994,0],[115.386179,37.727082,0],[115.394316,37.712143,0],[115.380989,37.707432,0],[115.333768,37.71322,0],[115.317046,37.695383,0],[115.325567,37.682458,0],[115.316853,37.660102,0],[115.301412,37.660169,0],[115.297376,37.629587,0],[115.258356,37.639625,0],[115.255088,37.645621,0],[115.227858,37.648921,0],[115.202934,37.637133,0],[115.191593,37.608833,0],[115.172756,37.600543,0],[115.200563,37.572498,0],[115.188325,37.563125,0],[115.201908,37.555977,0],[115.237276,37.575465,0],[115.282575,37.576005,0],[115.307179,37.563935,0],[115.360871,37.523935,0],[115.359461,37.558675,0],[115.377914,37.541138,0],[115.405785,37.535944,0],[115.410078,37.523261,0],[115.430965,37.506796,0],[115.455313,37.501802,0],[115.421675,37.495727,0],[115.426096,37.506256,0],[115.402069,37.51017,0],[115.397968,37.497347,0],[115.417638,37.487762,0],[115.410719,37.476421,0],[115.431478,37.469602,0],[115.404183,37.462039,0],[115.360038,37.461431,0],[115.345109,37.448195,0],[115.391049,37.42793,0],[115.428595,37.387926,0],[115.468768,37.382788,0],[115.506634,37.368997,0],[115.520089,37.353648,0],[115.52938,37.326864,0],[115.577177,37.316107,0],[115.599218,37.332884,0],[115.590632,37.312453,0],[115.599859,37.301965,0],[115.623437,37.297905,0],[115.63292,37.277058,0],[115.67258,37.275839,0],[115.675784,37.258914,0],[115.698465,37.257153,0],[115.756322,37.209876,0],[115.76997,37.14155,0],[115.786564,37.123916,0],[115.827378,37.106006,0],[115.853904,37.059245,0]]]},"properties":{"name":"衡水市","_color":"#bd21e0","center":[115.7870489327354,37.787042721973116,0]}},{"type":"Feature","geometry":{"type":"MultiPolygon","coordinates":[[[[116.244678,39.517354,0],[116.222766,39.501995,0],[116.220843,39.511644,0],[116.182144,39.49635,0],[116.179901,39.486568,0],[116.151325,39.471005,0],[116.132104,39.429423,0],[116.133001,39.4055,0],[116.116791,39.376243,0],[116.13582,39.351842,0],[116.198226,39.351315,0],[116.208734,39.330195,0],[116.201109,39.251911,0],[116.186116,39.222457,0],[116.206555,39.207429,0],[116.207837,39.168526,0],[116.221804,39.147813,0],[116.262426,39.138114,0],[116.263131,39.127292,0],[116.28184,39.107623,0],[116.305354,39.098116,0],[116.317592,39.077911,0],[116.318617,39.037416,0],[116.307148,39.032196,0],[116.293757,39.007344,0],[116.299588,38.993658,0],[116.3215,38.998088,0],[116.33534,38.984004,0],[116.316182,38.962708,0],[116.298755,38.975076,0],[116.291386,38.948683,0],[116.253007,38.932074,0],[116.243653,38.949345,0],[116.228083,38.942199,0],[116.230262,38.92453,0],[116.209503,38.921618,0],[116.20002,38.915727,0],[116.202198,38.887258,0],[116.212194,38.870238,0],[116.23212,38.871894,0],[116.248907,38.85964,0],[116.247497,38.848907,0],[116.278764,38.836451,0],[116.271973,38.816634,0],[116.338287,38.80689,0],[116.390313,38.789784,0],[116.42299,38.770419,0],[116.435804,38.733199,0],[116.406331,38.703596,0],[116.370836,38.692508,0],[116.366863,38.67305,0],[116.381984,38.619165,0],[116.41921,38.599288,0],[116.425425,38.587187,0],[116.454834,38.580337,0],[116.455475,38.557656,0],[116.432152,38.552533,0],[116.431127,38.539558,0],[116.452655,38.534501,0],[116.449772,38.518262,0],[116.465726,38.494096,0],[116.519482,38.48817,0],[116.559399,38.496759,0],[116.569715,38.470988,0],[116.589897,38.483908,0],[116.610593,38.479646,0],[116.627315,38.501087,0],[116.621228,38.514335,0],[116.647114,38.50648,0],[116.668257,38.530042,0],[116.672678,38.546545,0],[116.652431,38.551202,0],[116.643333,38.564773,0],[116.671653,38.566503,0],[116.662234,38.581268,0],[116.680303,38.592706,0],[116.680559,38.605936,0],[116.702792,38.619098,0],[116.71503,38.609327,0],[116.733739,38.614047,0],[116.738224,38.631327,0],[116.763212,38.633853,0],[116.77404,38.652258,0],[116.758855,38.732071,0],[116.766351,38.741959,0],[116.746297,38.754233,0],[116.751294,38.780168,0],[116.737327,38.784479,0],[116.73848,38.807022,0],[116.75123,38.831282,0],[116.74604,38.851491,0],[116.723103,38.852551,0],[116.722334,38.897058,0],[116.708046,38.897058,0],[116.70811,38.931876,0],[116.716183,38.93889,0],[116.728613,38.975341,0],[116.754626,39.003245,0],[116.756612,39.0503,0],[116.773015,39.046865,0],[116.787303,39.061927,0],[116.80268,39.050895,0],[116.860473,39.050564,0],[116.869891,39.069919,0],[116.881488,39.071702,0],[116.91109,39.111055,0],[116.924096,39.119372,0],[116.909232,39.150782,0],[116.870084,39.153685,0],[116.863164,39.201365,0],[116.855796,39.215669,0],[116.875594,39.21646,0],[116.874569,39.230036,0],[116.892637,39.223973,0],[116.878733,39.255336,0],[116.867969,39.302552,0],[116.884243,39.305383,0],[116.889626,39.338157,0],[116.875786,39.33921,0],[116.870724,39.357499,0],[116.849196,39.339473,0],[116.829206,39.338881,0],[116.818121,39.373547,0],[116.837599,39.374073,0],[116.834139,39.402674,0],[116.875914,39.434548,0],[116.855475,39.443352,0],[116.832473,39.435468,0],[116.815751,39.451761,0],[116.807421,39.445586,0],[116.785124,39.465883,0],[116.820748,39.482431,0],[116.813957,39.510266,0],[116.826194,39.513088,0],[116.819595,39.52851,0],[116.806204,39.528838,0],[116.787687,39.554555,0],[116.81165,39.576983,0],[116.797875,39.594358,0],[116.812355,39.615922,0],[116.789994,39.610548,0],[116.790699,39.596062,0],[116.748667,39.619919,0],[116.700742,39.621033,0],[116.7026,39.610417,0],[116.727075,39.593047,0],[116.705099,39.587999,0],[116.662363,39.605239,0],[116.646537,39.599143,0],[116.620524,39.601699,0],[116.607773,39.619723,0],[116.565934,39.619788,0],[116.566575,39.604387,0],[116.541779,39.593505,0],[116.524416,39.596521,0],[116.519354,39.566491,0],[116.508462,39.551078,0],[116.470916,39.55462,0],[116.478861,39.539204,0],[116.464573,39.527657,0],[116.437534,39.526541,0],[116.443813,39.509872,0],[116.424656,39.509741,0],[116.424079,39.522735,0],[116.402679,39.526869,0],[116.402807,39.5144,0],[116.418761,39.506393,0],[116.412354,39.482103,0],[116.444134,39.482169,0],[116.454706,39.453338,0],[116.434395,39.442761,0],[116.408958,39.45025,0],[116.350461,39.453009,0],[116.320027,39.46851,0],[116.306443,39.488997,0],[116.279277,39.491295,0],[116.257941,39.500551,0],[116.244678,39.517354,0]]],[[[117.209793,40.082253,0],[117.204347,40.06982,0],[117.160073,40.076199,0],[117.13925,40.064025,0],[117.119515,40.072424,0],[117.085621,40.075158,0],[117.085173,40.068583,0],[117.052048,40.059402,0],[117.028533,40.033939,0],[117.000662,40.0299,0],[116.972086,40.037,0],[116.960489,40.051133,0],[116.928133,40.05491,0],[116.867841,40.041885,0],[116.857782,40.051914,0],[116.822734,40.046444,0],[116.819979,40.028337,0],[116.781536,40.034851,0],[116.770452,40.011658,0],[116.775385,39.99276,0],[116.757317,39.961468,0],[116.780575,39.94973,0],[116.784676,39.891401,0],[116.804154,39.877954,0],[116.827284,39.87704,0],[116.866047,39.843866,0],[116.885653,39.844585,0],[116.907566,39.834133,0],[116.902824,39.848242,0],[116.92589,39.835374,0],[116.928453,39.813095,0],[116.952608,39.789827,0],[116.949725,39.778583,0],[116.924288,39.781263,0],[116.920893,39.769167,0],[116.901799,39.763609,0],[116.916664,39.731362,0],[116.88277,39.718472,0],[116.893854,39.695893,0],[116.912563,39.689216,0],[116.91692,39.706365,0],[116.950878,39.706824,0],[116.944599,39.695173,0],[116.963629,39.643441,0],[116.974585,39.636824,0],[117.004378,39.644489,0],[117.015783,39.654052,0],[117.057045,39.644554,0],[117.127076,39.61697,0],[117.152641,39.623523,0],[117.157959,39.636627,0],[117.177693,39.645602,0],[117.159624,39.666823,0],[117.170132,39.673371,0],[117.169235,39.717622,0],[117.153153,39.722726,0],[117.161867,39.747389,0],[117.205884,39.763871,0],[117.18064,39.78244,0],[117.178718,39.795318,0],[117.15751,39.796756,0],[117.156357,39.817473,0],[117.195056,39.82551,0],[117.192173,39.833088,0],[117.252208,39.834591,0],[117.259961,39.843409,0],[117.247467,39.861043,0],[117.227797,39.852749,0],[117.166865,39.868944,0],[117.149117,39.896297,0],[117.158856,39.909218,0],[117.137456,39.921616,0],[117.156869,39.938055,0],[117.151039,39.944839,0],[117.175963,39.959121,0],[117.178654,39.977311,0],[117.198132,39.99276,0],[117.187752,40.026187,0],[117.1841,40.062593,0],[117.222863,40.065523,0],[117.209793,40.082253,0]]]]},"properties":{"name":"廊坊市","_color":"#81e293","center":[116.79309025893363,39.49070821447741,0]}},{"type":"Feature","geometry":{"type":"Polygon","coordinates":[[[119.319039,39.429554,0],[119.304238,39.459972,0],[119.270024,39.498582,0],[119.31276,39.605894,0],[119.334928,39.656148,0],[119.358122,39.721744,0],[119.3735,39.739671,0],[119.395925,39.74425,0],[119.396886,39.761124,0],[119.464738,39.809239,0],[119.506641,39.816493,0],[119.53778,39.810154,0],[119.537652,39.831259,0],[119.520352,39.838183,0],[119.541048,39.888138,0],[119.559564,39.901518,0],[119.587948,39.909936,0],[119.612936,39.898907,0],[119.637027,39.923182,0],[119.666436,39.92018,0],[119.674317,39.933424,0],[119.683543,39.921942,0],[119.726279,39.941056,0],[119.787212,39.950382,0],[119.816877,39.978224,0],[119.836739,39.985786,0],[119.835522,39.964468,0],[119.862432,39.951556,0],[119.872363,39.960621,0],[119.841032,40.011789,0],[119.854231,40.03231,0],[119.835009,40.050286,0],[119.817069,40.052826,0],[119.795285,40.040387,0],[119.770873,40.048788,0],[119.76043,40.065653,0],[119.771578,40.082253,0],[119.736723,40.104836,0],[119.76248,40.144776,0],[119.755496,40.153165,0],[119.745949,40.207957,0],[119.716797,40.196066,0],[119.676239,40.224522,0],[119.671562,40.23959,0],[119.625174,40.224132,0],[119.633503,40.249395,0],[119.651892,40.272377,0],[119.642153,40.291327,0],[119.621458,40.30359,0],[119.598136,40.334206,0],[119.599801,40.356575,0],[119.586667,40.375437,0],[119.600442,40.406863,0],[119.593458,40.435683,0],[119.604927,40.454976,0],[119.553542,40.501762,0],[119.555464,40.516833,0],[119.568855,40.520778,0],[119.571033,40.540887,0],[119.534256,40.554203,0],[119.520288,40.547416,0],[119.503886,40.553945,0],[119.491007,40.536167,0],[119.477809,40.533322,0],[119.441864,40.539852,0],[119.361839,40.537331,0],[119.338068,40.531253,0],[119.302188,40.530283,0],[119.25612,40.543279,0],[119.220624,40.569133,0],[119.232862,40.589421,0],[119.230812,40.603891,0],[119.178209,40.609316,0],[119.162575,40.600015,0],[119.158474,40.614418,0],[119.105487,40.603632,0],[119.086394,40.588775,0],[119.063392,40.606151,0],[119.013095,40.577081,0],[118.998359,40.578955,0],[118.983366,40.56364,0],[118.952676,40.558469,0],[118.966003,40.536102,0],[118.919038,40.53093,0],[118.886938,40.542438,0],[118.864,40.527244,0],[118.821328,40.531964,0],[118.794867,40.510753,0],[118.792112,40.492382,0],[118.772954,40.479765,0],[118.723491,40.473746,0],[118.702795,40.491411,0],[118.657176,40.450574,0],[118.624179,40.437626,0],[118.618349,40.425193,0],[118.643785,40.380946,0],[118.640197,40.354566,0],[118.608225,40.328305,0],[118.596949,40.308456,0],[118.580098,40.305861,0],[118.568949,40.287564,0],[118.571384,40.269845,0],[118.628472,40.249915,0],[118.665634,40.242577,0],[118.708562,40.216078,0],[118.746108,40.208087,0],[118.743609,40.191777,0],[118.775581,40.194182,0],[118.794482,40.204838,0],[118.849135,40.178974,0],[118.867652,40.180599,0],[118.888924,40.168768,0],[118.906736,40.169679,0],[118.92474,40.149653,0],[118.918269,40.092211,0],[118.900521,40.086549,0],[118.866307,40.061942,0],[118.865602,40.023777,0],[118.88508,40.005403,0],[118.884247,39.961794,0],[118.875149,39.941121,0],[118.859643,39.93362,0],[118.853556,39.88409,0],[118.835232,39.859018,0],[118.838179,39.847981,0],[118.816843,39.825836,0],[118.825429,39.799436,0],[118.797942,39.790415,0],[118.800185,39.775706,0],[118.774428,39.764198,0],[118.787242,39.71592,0],[118.804157,39.679985,0],[118.822225,39.668984,0],[118.824596,39.648681,0],[118.850097,39.622737,0],[118.844586,39.615004,0],[118.861309,39.574754,0],[118.882261,39.566557,0],[118.895139,39.547011,0],[118.938452,39.557572,0],[118.945243,39.544781,0],[118.983302,39.538942,0],[118.966067,39.529494,0],[118.961453,39.51591,0],[119.008098,39.509347,0],[119.015658,39.482103,0],[119.004894,39.467459,0],[119.048399,39.459052,0],[119.064545,39.473763,0],[119.185769,39.458986,0],[119.212295,39.463453,0],[119.257401,39.429752,0],[119.280403,39.422852,0],[119.319039,39.429554,0]]]},"properties":{"name":"秦皇岛市","_color":"#e56299","center":[119.20494373202618,40.09430427450981,0]}},{"type":"Feature","geometry":{"type":"Polygon","coordinates":[[[113.839548,38.758413,0],[113.802899,38.763321,0],[113.78041,38.728355,0],[113.775669,38.709836,0],[113.745363,38.701538,0],[113.729024,38.71196,0],[113.709995,38.698284,0],[113.713839,38.663684,0],[113.702114,38.65166,0],[113.667067,38.646943,0],[113.632596,38.653122,0],[113.612862,38.646013,0],[113.604212,38.616107,0],[113.602803,38.586854,0],[113.562053,38.558321,0],[113.557248,38.504016,0],[113.546548,38.493031,0],[113.583517,38.465992,0],[113.573202,38.449205,0],[113.538026,38.418017,0],[113.525468,38.383016,0],[113.53431,38.365208,0],[113.557248,38.34346,0],[113.546035,38.293067,0],[113.544818,38.270495,0],[113.566282,38.252393,0],[113.570318,38.237427,0],[113.598894,38.227136,0],[113.636761,38.232682,0],[113.657072,38.225599,0],[113.679112,38.205413,0],[113.711725,38.213702,0],[113.715057,38.193713,0],[113.738507,38.189501,0],[113.720631,38.174656,0],[113.731139,38.168369,0],[113.756575,38.171713,0],[113.796876,38.162884,0],[113.828848,38.168971,0],[113.83359,38.147431,0],[113.822505,38.150442,0],[113.810075,38.112566,0],[113.824235,38.106676,0],[113.854733,38.077082,0],[113.856015,38.065898,0],[113.876261,38.055047,0],[113.878376,38.032402,0],[113.872353,37.990375,0],[113.90125,37.98481,0],[113.922842,37.952082,0],[113.929185,37.932022,0],[113.956864,37.911419,0],[113.971536,37.868786,0],[113.970191,37.833923,0],[113.982557,37.812823,0],[114.006648,37.813495,0],[114.018821,37.794876,0],[114.043873,37.777463,0],[114.041182,37.756817,0],[114.000817,37.735358,0],[113.993769,37.706893,0],[114.068029,37.721564,0],[114.088275,37.708845,0],[114.128256,37.69821,0],[114.139725,37.675927,0],[114.131139,37.648315,0],[114.115378,37.619884,0],[114.118325,37.590634,0],[114.059635,37.515906,0],[114.036762,37.494175,0],[114.028304,37.474598,0],[114.022666,37.435496,0],[114.06899,37.447384,0],[114.096477,37.490935,0],[114.113263,37.493837,0],[114.126526,37.481957,0],[114.133766,37.498899,0],[114.156191,37.505244,0],[114.166123,37.528186,0],[114.184575,37.530817,0],[114.215009,37.51125,0],[114.255439,37.504096,0],[114.27293,37.494445,0],[114.303621,37.507808,0],[114.310861,37.499979,0],[114.334632,37.502949,0],[114.358274,37.519212,0],[114.370192,37.513612,0],[114.37269,37.52967,0],[114.412095,37.549907,0],[114.433495,37.552537,0],[114.483471,37.576814,0],[114.519927,37.574656,0],[114.585217,37.55301,0],[114.64679,37.556247,0],[114.680171,37.565283,0],[114.698816,37.589353,0],[114.707338,37.615774,0],[114.725983,37.630665,0],[114.764618,37.624399,0],[114.797423,37.628239,0],[114.808571,37.659832,0],[114.841504,37.676129,0],[114.847783,37.69673,0],[114.871041,37.702114,0],[114.881357,37.716113,0],[114.895965,37.712547,0],[114.904038,37.729302,0],[114.931846,37.728899,0],[114.960165,37.720084,0],[114.987524,37.742691,0],[115.001748,37.734685,0],[115.012512,37.75157,0],[115.041024,37.733541,0],[115.070049,37.745651,0],[115.068703,37.773428,0],[115.085298,37.779211,0],[115.072291,37.794136,0],[115.097215,37.797498,0],[115.097471,37.807849,0],[115.122972,37.811479,0],[115.131173,37.799783,0],[115.150523,37.808521,0],[115.160262,37.780287,0],[115.152765,37.759507,0],[115.172564,37.749351,0],[115.227281,37.732599,0],[115.243235,37.722641,0],[115.261431,37.68818,0],[115.253807,37.671415,0],[115.255088,37.645621,0],[115.258356,37.639625,0],[115.297376,37.629587,0],[115.301412,37.660169,0],[115.316853,37.660102,0],[115.325567,37.682458,0],[115.317046,37.695383,0],[115.333768,37.71322,0],[115.380989,37.707432,0],[115.394316,37.712143,0],[115.386179,37.727082,0],[115.360294,37.731994,0],[115.344468,37.74814,0],[115.371635,37.770335,0],[115.352349,37.784052,0],[115.349722,37.805765,0],[115.360166,37.820215,0],[115.363049,37.849845,0],[115.388614,37.853003,0],[115.389831,37.874629,0],[115.360294,37.880068,0],[115.365484,37.906318,0],[115.385795,37.917191,0],[115.408668,37.918936,0],[115.412769,37.943293,0],[115.448585,37.936584,0],[115.457555,37.95074,0],[115.456017,37.974551,0],[115.444997,37.989168,0],[115.464219,37.99299,0],[115.438205,38.001102,0],[115.45134,38.017323,0],[115.466782,38.063554,0],[115.482992,38.08398,0],[115.468063,38.095161,0],[115.439871,38.082038,0],[115.420522,38.089671,0],[115.383232,38.0886,0],[115.364843,38.13793,0],[115.346903,38.13967,0],[115.342418,38.196254,0],[115.35094,38.210493,0],[115.323645,38.220586,0],[115.324734,38.248184,0],[115.302758,38.235289,0],[115.273605,38.2403,0],[115.263994,38.260543,0],[115.265788,38.287658,0],[115.252205,38.29093,0],[115.225871,38.269894,0],[115.210174,38.236491,0],[115.19422,38.236759,0],[115.168591,38.259608,0],[115.152317,38.256802,0],[115.108107,38.264551,0],[115.085874,38.276773,0],[115.073765,38.293134,0],[115.056722,38.288326,0],[115.066204,38.264684,0],[115.056465,38.258472,0],[115.031862,38.267089,0],[114.989062,38.258138,0],[114.990087,38.272165,0],[114.970096,38.281114,0],[114.927681,38.283385,0],[114.915059,38.263348,0],[114.886162,38.265286,0],[114.883343,38.284854,0],[114.902565,38.294936,0],[114.906986,38.309624,0],[114.922875,38.315631,0],[114.942994,38.343193,0],[114.932871,38.344194,0],[114.923388,38.388217,0],[114.910381,38.393751,0],[114.882254,38.424149,0],[114.853998,38.435879,0],[114.858163,38.448605,0],[114.840992,38.460797,0],[114.837852,38.435745,0],[114.819143,38.449871,0],[114.830868,38.46033,0],[114.81075,38.492365,0],[114.765259,38.496626,0],[114.731237,38.48191,0],[114.702084,38.489102,0],[114.6737,38.473452,0],[114.651851,38.504682,0],[114.635257,38.514801,0],[114.595724,38.568897,0],[114.58432,38.596429,0],[114.56324,38.590644,0],[114.527616,38.590644,0],[114.552284,38.612983,0],[114.536907,38.632324,0],[114.53633,38.649268,0],[114.522106,38.65372,0],[114.498463,38.678297,0],[114.452652,38.699413,0],[114.437787,38.692773,0],[114.413504,38.703928,0],[114.366411,38.6862,0],[114.341167,38.690184,0],[114.311502,38.706517,0],[114.212831,38.688192,0],[114.182205,38.67657,0],[114.129153,38.669596,0],[114.125053,38.659632,0],[114.086097,38.65837,0],[114.052139,38.686399,0],[114.028624,38.688524,0],[113.991655,38.676769,0],[113.964617,38.699811,0],[113.929697,38.702467,0],[113.932324,38.71362,0],[113.883245,38.74667,0],[113.864664,38.746006,0],[113.839548,38.758413,0]]]},"properties":{"name":"石家庄市","_color":"#e8c168","center":[114.56522110121462,38.08146857894738,0]}},{"type":"Feature","geometry":{"type":"MultiPolygon","coordinates":[[[[119.319039,39.429554,0],[119.280403,39.422852,0],[119.257401,39.429752,0],[119.212295,39.463453,0],[119.185769,39.458986,0],[119.064545,39.473763,0],[119.048399,39.459052,0],[119.004894,39.467459,0],[119.015658,39.482103,0],[119.008098,39.509347,0],[118.961453,39.51591,0],[118.966067,39.529494,0],[118.983302,39.538942,0],[118.945243,39.544781,0],[118.938452,39.557572,0],[118.895139,39.547011,0],[118.882261,39.566557,0],[118.861309,39.574754,0],[118.844586,39.615004,0],[118.850097,39.622737,0],[118.824596,39.648681,0],[118.822225,39.668984,0],[118.804157,39.679985,0],[118.787242,39.71592,0],[118.774428,39.764198,0],[118.800185,39.775706,0],[118.797942,39.790415,0],[118.825429,39.799436,0],[118.816843,39.825836,0],[118.838179,39.847981,0],[118.835232,39.859018,0],[118.853556,39.88409,0],[118.859643,39.93362,0],[118.875149,39.941121,0],[118.884247,39.961794,0],[118.88508,40.005403,0],[118.865602,40.023777,0],[118.866307,40.061942,0],[118.900521,40.086549,0],[118.918269,40.092211,0],[118.92474,40.149653,0],[118.906736,40.169679,0],[118.888924,40.168768,0],[118.867652,40.180599,0],[118.849135,40.178974,0],[118.794482,40.204838,0],[118.775581,40.194182,0],[118.743609,40.191777,0],[118.746108,40.208087,0],[118.708562,40.216078,0],[118.665634,40.242577,0],[118.628472,40.249915,0],[118.571384,40.269845,0],[118.568949,40.287564,0],[118.533325,40.298854,0],[118.532364,40.319419,0],[118.539989,40.361048,0],[118.558377,40.36928,0],[118.550881,40.385482,0],[118.571512,40.414636,0],[118.548062,40.422667,0],[118.523458,40.40628,0],[118.503211,40.403365,0],[118.45599,40.414053,0],[118.430746,40.411851,0],[118.402683,40.416838,0],[118.387305,40.436719,0],[118.360011,40.428819,0],[118.356295,40.435295,0],[118.306575,40.419558,0],[118.277935,40.425711,0],[118.262942,40.452063,0],[118.239684,40.464686,0],[118.173818,40.423056,0],[118.156967,40.423768,0],[118.153123,40.409519,0],[118.165232,40.400449,0],[118.133837,40.375113,0],[118.121856,40.354695,0],[118.079312,40.353528,0],[118.061564,40.319095,0],[118.031643,40.302358,0],[118.000888,40.29256,0],[117.909457,40.285876,0],[117.897989,40.270429,0],[117.867554,40.26965,0],[117.844104,40.261406,0],[117.807775,40.261926,0],[117.75152,40.229718,0],[117.714551,40.241668,0],[117.694112,40.238161,0],[117.677069,40.22095,0],[117.64625,40.205163,0],[117.619532,40.206398,0],[117.609409,40.194897,0],[117.575451,40.192817,0],[117.576412,40.178584,0],[117.601208,40.171239,0],[117.630232,40.147833,0],[117.635999,40.132094,0],[117.650159,40.128191,0],[117.65317,40.110757,0],[117.644841,40.096181,0],[117.668099,40.100931,0],[117.67489,40.082123,0],[117.708272,40.093643,0],[117.721983,40.07991,0],[117.751648,40.081993,0],[117.758184,40.065978,0],[117.776188,40.059272,0],[117.758312,40.04436,0],[117.747932,40.047421,0],[117.744152,40.018434,0],[117.782467,40.023516,0],[117.797075,40.010225,0],[117.782019,39.968315,0],[117.756326,39.96512,0],[117.72775,39.972422,0],[117.70667,39.986046,0],[117.674698,39.974834,0],[117.634589,39.968901,0],[117.589226,39.996866,0],[117.537777,39.997452,0],[117.547323,39.976855,0],[117.532907,39.952469,0],[117.514967,39.946665,0],[117.525539,39.92964,0],[117.507406,39.909023,0],[117.518811,39.891271,0],[117.521374,39.870641,0],[117.548092,39.839882,0],[117.537264,39.835178,0],[117.561419,39.800024,0],[117.546106,39.776164,0],[117.559305,39.756088,0],[117.59589,39.746147,0],[117.596082,39.735222,0],[117.577629,39.726913,0],[117.602425,39.705384,0],[117.644777,39.701849,0],[117.643944,39.688692,0],[117.657014,39.668657,0],[117.668355,39.667085,0],[117.662012,39.636365,0],[117.641957,39.628438,0],[117.641189,39.612645,0],[117.619084,39.603207,0],[117.621967,39.59167,0],[117.636191,39.603731,0],[117.660795,39.57541,0],[117.68495,39.588916,0],[117.708913,39.572918,0],[117.688794,39.569246,0],[117.689563,39.559539,0],[117.710194,39.550422,0],[117.71596,39.530084,0],[117.744857,39.548585,0],[117.737745,39.574033,0],[117.753122,39.576,0],[117.747868,39.589375,0],[117.76773,39.599012,0],[117.801945,39.601765,0],[117.826548,39.590818,0],[117.851408,39.589244,0],[117.868259,39.596849,0],[117.892607,39.591539,0],[117.933997,39.574164,0],[117.905293,39.53015,0],[117.912277,39.516172,0],[117.898565,39.509675,0],[117.898181,39.472516,0],[117.878062,39.467196,0],[117.87031,39.45498,0],[117.871847,39.411547,0],[117.859353,39.403265,0],[117.852369,39.38078,0],[117.805277,39.373284,0],[117.803354,39.362037,0],[117.837056,39.350789,0],[117.862877,39.362169,0],[117.842054,39.336512,0],[117.84955,39.327366,0],[117.888314,39.332038,0],[117.891774,39.32322,0],[117.972248,39.314401,0],[117.97763,39.300643,0],[118.016842,39.284117,0],[118.024787,39.292414,0],[118.036512,39.265151,0],[118.064768,39.256061,0],[118.064768,39.231222,0],[118.037089,39.230497,0],[118.026196,39.20176,0],[118.050864,39.200112,0],[118.07047,39.214021,0],[118.07771,39.202024,0],[118.125316,39.182771,0],[118.16299,39.136596,0],[118.182596,39.094155,0],[118.225011,39.034839,0],[118.267107,39.021555,0],[118.290813,39.022216,0],[118.309907,39.011773,0],[118.373594,39.012037,0],[118.371031,38.984137,0],[118.378015,38.97177,0],[118.406463,38.960525,0],[118.491038,38.909041,0],[118.525252,38.90487,0],[118.539732,38.909835,0],[118.604445,38.971505,0],[118.570487,38.999212,0],[118.532877,39.091051,0],[118.551394,39.088278,0],[118.560107,39.09904,0],[118.588619,39.107623,0],[118.578752,39.130921,0],[118.59272,39.142601,0],[118.637314,39.157379,0],[118.692992,39.148077,0],[118.719646,39.136992,0],[118.760716,39.133495,0],[118.814409,39.138642,0],[118.857913,39.162854,0],[118.876366,39.14999,0],[118.897253,39.151508,0],[118.920447,39.171758,0],[118.951074,39.178485,0],[118.896549,39.139698,0],[118.890013,39.118844,0],[118.926278,39.123464,0],[118.977984,39.163381,0],[119.023988,39.186925,0],[119.038276,39.21178,0],[119.096068,39.241963,0],[119.121505,39.281549,0],[119.185577,39.342039,0],[119.239269,39.352368,0],[119.272779,39.363616,0],[119.317052,39.410759,0],[119.319039,39.429554,0]]],[[[117.784581,39.377032,0],[117.782147,39.394785,0],[117.737296,39.410562,0],[117.69975,39.407604,0],[117.702313,39.388934,0],[117.673224,39.386698,0],[117.669124,39.412008,0],[117.643495,39.405829,0],[117.61415,39.407078,0],[117.6014,39.4195,0],[117.590636,39.405435,0],[117.571158,39.404646,0],[117.557895,39.38558,0],[117.535342,39.374007,0],[117.520862,39.357236,0],[117.536239,39.338026,0],[117.595249,39.349144,0],[117.637536,39.335986,0],[117.650799,39.315191,0],[117.669316,39.324141,0],[117.670982,39.357828,0],[117.706221,39.351513,0],[117.744601,39.354604,0],[117.784581,39.377032,0]]],[[[118.630522,39.054726,0],[118.640005,39.042306,0],[118.653652,39.056973,0],[118.638852,39.076061,0],[118.620847,39.068268,0],[118.630522,39.054726,0]]],[[[118.869446,39.142733,0],[118.842664,39.117788,0],[118.820239,39.108745,0],[118.820495,39.093693,0],[118.857465,39.098842,0],[118.871753,39.115082,0],[118.869446,39.142733,0]]],[[[118.83914,39.153817,0],[118.815177,39.132373,0],[118.825749,39.122672,0],[118.841511,39.135475,0],[118.83914,39.153817,0]]]]},"properties":{"name":"唐山市","_color":"#fcdeab","center":[118.441707045471,39.28266877858697,0]}},{"type":"Feature","geometry":{"type":"Polygon","coordinates":[[[115.255088,37.645621,0],[115.253807,37.671415,0],[115.261431,37.68818,0],[115.243235,37.722641,0],[115.227281,37.732599,0],[115.172564,37.749351,0],[115.152765,37.759507,0],[115.160262,37.780287,0],[115.150523,37.808521,0],[115.131173,37.799783,0],[115.122972,37.811479,0],[115.097471,37.807849,0],[115.097215,37.797498,0],[115.072291,37.794136,0],[115.085298,37.779211,0],[115.068703,37.773428,0],[115.070049,37.745651,0],[115.041024,37.733541,0],[115.012512,37.75157,0],[115.001748,37.734685,0],[114.987524,37.742691,0],[114.960165,37.720084,0],[114.931846,37.728899,0],[114.904038,37.729302,0],[114.895965,37.712547,0],[114.881357,37.716113,0],[114.871041,37.702114,0],[114.847783,37.69673,0],[114.841504,37.676129,0],[114.808571,37.659832,0],[114.797423,37.628239,0],[114.764618,37.624399,0],[114.725983,37.630665,0],[114.707338,37.615774,0],[114.698816,37.589353,0],[114.680171,37.565283,0],[114.64679,37.556247,0],[114.585217,37.55301,0],[114.519927,37.574656,0],[114.483471,37.576814,0],[114.433495,37.552537,0],[114.412095,37.549907,0],[114.37269,37.52967,0],[114.370192,37.513612,0],[114.358274,37.519212,0],[114.334632,37.502949,0],[114.310861,37.499979,0],[114.303621,37.507808,0],[114.27293,37.494445,0],[114.255439,37.504096,0],[114.215009,37.51125,0],[114.184575,37.530817,0],[114.166123,37.528186,0],[114.156191,37.505244,0],[114.133766,37.498899,0],[114.126526,37.481957,0],[114.113263,37.493837,0],[114.096477,37.490935,0],[114.06899,37.447384,0],[114.022666,37.435496,0],[113.973907,37.403133,0],[113.959811,37.348982,0],[113.921176,37.33072,0],[113.902147,37.30995,0],[113.899007,37.279495,0],[113.886897,37.25993,0],[113.886449,37.23914,0],[113.853067,37.215093,0],[113.836601,37.18948,0],[113.831924,37.167518,0],[113.77317,37.151857,0],[113.767339,37.144601,0],[113.77349,37.106956,0],[113.758177,37.075672,0],[113.768749,37.062504,0],[113.788227,37.059788,0],[113.790149,37.04295,0],[113.771888,37.016803,0],[113.794954,36.994995,0],[113.828784,37.012048,0],[113.859475,37.015037,0],[113.883886,37.010893,0],[113.901185,36.99683,0],[113.941743,36.983376,0],[113.984415,36.941503,0],[113.991078,36.914913,0],[114.028176,36.881236,0],[114.063672,36.879331,0],[114.090005,36.861023,0],[114.081548,36.845094,0],[114.100449,36.839035,0],[114.182653,36.843937,0],[114.225902,36.843052,0],[114.252684,36.856531,0],[114.299969,36.845435,0],[114.304518,36.857007,0],[114.336105,36.846728,0],[114.353533,36.852038,0],[114.421193,36.839444,0],[114.462327,36.847681,0],[114.478921,36.833248,0],[114.507754,36.827936,0],[114.555231,36.845979,0],[114.551707,36.884094,0],[114.56702,36.891307,0],[114.64884,36.89845,0],[114.671073,36.917429,0],[114.707145,36.918041,0],[114.718166,36.938103,0],[114.734568,36.942931,0],[114.74341,36.932323,0],[114.772691,36.928447,0],[114.787492,36.91396,0],[114.838172,36.950885,0],[114.836314,36.958024,0],[114.862712,36.969715,0],[114.892441,36.969647,0],[114.949593,36.948778,0],[114.985602,36.950477,0],[115.02161,36.961422,0],[115.0589,36.957004,0],[115.096702,36.964549,0],[115.111631,36.958431,0],[115.125022,36.936471,0],[115.106505,36.923958,0],[115.125086,36.90607,0],[115.143219,36.899131,0],[115.16622,36.901512,0],[115.170449,36.881509,0],[115.158916,36.852038,0],[115.176856,36.854353,0],[115.200563,36.868374,0],[115.283344,36.862589,0],[115.325567,36.869667,0],[115.307499,36.837129,0],[115.323004,36.815474,0],[115.335691,36.775826,0],[115.349786,36.786796,0],[115.362921,36.771056,0],[115.390664,36.76315,0],[115.423661,36.766081,0],[115.463386,36.752177,0],[115.478314,36.754699,0],[115.502918,36.77017,0],[115.523613,36.763832,0],[115.538734,36.784139,0],[115.572116,36.775349,0],[115.637405,36.797492,0],[115.66502,36.812477,0],[115.684177,36.812954,0],[115.688598,36.83958,0],[115.71128,36.882393,0],[115.740561,36.90641,0],[115.757796,36.903008,0],[115.772789,36.936811,0],[115.796816,36.968763,0],[115.784322,36.970735,0],[115.776441,36.992073,0],[115.80963,37.011436,0],[115.812385,37.028961,0],[115.853904,37.059245,0],[115.827378,37.106006,0],[115.786564,37.123916,0],[115.76997,37.14155,0],[115.756322,37.209876,0],[115.698465,37.257153,0],[115.675784,37.258914,0],[115.67258,37.275839,0],[115.63292,37.277058,0],[115.623437,37.297905,0],[115.599859,37.301965,0],[115.590632,37.312453,0],[115.599218,37.332884,0],[115.577177,37.316107,0],[115.52938,37.326864,0],[115.520089,37.353648,0],[115.506634,37.368997,0],[115.468768,37.382788,0],[115.428595,37.387926,0],[115.391049,37.42793,0],[115.345109,37.448195,0],[115.360038,37.461431,0],[115.404183,37.462039,0],[115.431478,37.469602,0],[115.410719,37.476421,0],[115.417638,37.487762,0],[115.397968,37.497347,0],[115.402069,37.51017,0],[115.426096,37.506256,0],[115.421675,37.495727,0],[115.455313,37.501802,0],[115.430965,37.506796,0],[115.410078,37.523261,0],[115.405785,37.535944,0],[115.377914,37.541138,0],[115.359461,37.558675,0],[115.360871,37.523935,0],[115.307179,37.563935,0],[115.282575,37.576005,0],[115.237276,37.575465,0],[115.201908,37.555977,0],[115.188325,37.563125,0],[115.200563,37.572498,0],[115.172756,37.600543,0],[115.191593,37.608833,0],[115.202934,37.637133,0],[115.227858,37.648921,0],[115.255088,37.645621,0]]]},"properties":{"name":"邢台市","_color":"#da8ee2","center":[114.88542620772945,37.25275157487921,0]}},{"type":"Feature","geometry":{"type":"Polygon","coordinates":[[[116.365069,40.943216,0],[116.341747,40.964804,0],[116.333546,40.984458,0],[116.29837,40.986641,0],[116.264733,41.038252,0],[116.296128,41.062118,0],[116.277419,41.083154,0],[116.268769,41.102645,0],[116.245447,41.114183,0],[116.233273,41.130845,0],[116.245895,41.16358,0],[116.22347,41.174275,0],[116.221356,41.185928,0],[116.235195,41.211853,0],[116.213603,41.233288,0],[116.198995,41.259578,0],[116.191627,41.288158,0],[116.209503,41.307715,0],[116.203352,41.326117,0],[116.17484,41.356328,0],[116.141586,41.373439,0],[116.08751,41.376951,0],[116.07713,41.384866,0],[116.036124,41.397694,0],[116.03023,41.416645,0],[116.004473,41.432911,0],[116.000052,41.454402,0],[115.97673,41.470913,0],[115.982112,41.485127,0],[115.97391,41.529659,0],[115.958789,41.550353,0],[115.924767,41.568623,0],[115.929252,41.596113,0],[115.909967,41.642921,0],[115.972885,41.680101,0],[116.014404,41.715355,0],[116.056307,41.733705,0],[116.081039,41.776352,0],[116.083986,41.781745,0],[116.03401,41.782633,0],[116.016646,41.77705,0],[115.994926,41.828608,0],[115.978588,41.840841,0],[115.946936,41.885634,0],[115.916374,41.945141,0],[115.853071,41.927738,0],[115.828852,41.936978,0],[115.815461,41.928687,0],[115.810976,41.912356,0],[115.795855,41.911153,0],[115.756707,41.886774,0],[115.727874,41.888421,0],[115.724415,41.868025,0],[115.68815,41.867708,0],[115.659382,41.848319,0],[115.653871,41.829052,0],[115.630806,41.824995,0],[115.598641,41.808003,0],[115.574102,41.805403,0],[115.548345,41.783902,0],[115.519769,41.767787,0],[115.488758,41.760934,0],[115.430068,41.728753,0],[115.366317,41.712561,0],[115.347031,41.712307,0],[115.319032,41.691473,0],[115.336844,41.675145,0],[115.355489,41.672158,0],[115.360935,41.661355,0],[115.345494,41.635673,0],[115.377594,41.602475,0],[115.365099,41.595795,0],[115.311535,41.592677,0],[115.290328,41.622955,0],[115.273477,41.622764,0],[115.26425,41.611889,0],[115.266429,41.592868,0],[115.257587,41.581097,0],[115.204215,41.571423,0],[115.205753,41.591723,0],[115.195053,41.602093,0],[115.167246,41.605973,0],[115.142386,41.616087,0],[115.113489,41.615769,0],[115.099137,41.623973,0],[115.087796,41.613415,0],[115.055953,41.602284,0],[115.025006,41.61526,0],[114.977849,41.611571,0],[114.938317,41.613225,0],[114.89808,41.607182,0],[114.877449,41.590896,0],[114.860726,41.600948,0],[114.895581,41.636436,0],[114.902885,41.689313,0],[114.895068,41.736561,0],[114.896157,41.76766,0],[114.8663,41.804578,0],[114.922363,41.825121,0],[114.939214,41.846165,0],[114.92153,41.875943,0],[114.925438,41.899566,0],[114.916148,41.936978,0],[114.933255,41.943559,0],[114.915507,41.958934,0],[114.916853,41.981008,0],[114.901796,42.015528,0],[114.89148,42.012115,0],[114.889622,42.030316,0],[114.860854,42.05483,0],[114.861302,42.101997,0],[114.823051,42.140867,0],[114.828369,42.147679,0],[114.793963,42.149193,0],[114.78935,42.130963,0],[114.754879,42.115756,0],[114.710221,42.115377,0],[114.704647,42.121435,0],[114.675494,42.120426,0],[114.647751,42.109634,0],[114.624813,42.112222,0],[114.585537,42.131215,0],[114.560293,42.132414,0],[114.510957,42.110897,0],[114.500706,42.085963,0],[114.5025,42.067398,0],[114.479883,42.064304,0],[114.466107,42.037962,0],[114.46835,42.025577,0],[114.485969,42.015338,0],[114.484752,41.999155,0],[114.501411,41.99277,0],[114.510701,41.973292,0],[114.487443,41.96722,0],[114.476295,41.953936,0],[114.421705,41.942167,0],[114.374036,41.956783,0],[114.348087,41.947609,0],[114.343217,41.926915,0],[114.326751,41.9297,0],[114.330403,41.916977,0],[114.287026,41.868658,0],[114.243457,41.832792,0],[114.202964,41.793416,0],[114.200401,41.778509,0],[114.215266,41.756492,0],[114.206744,41.738402,0],[114.232501,41.717705,0],[114.237563,41.698651,0],[114.219302,41.700239,0],[114.215394,41.685057,0],[114.259347,41.6234,0],[114.227632,41.620221,0],[114.237242,41.59624,0],[114.221673,41.582242,0],[114.231604,41.547043,0],[114.231027,41.513671,0],[114.101218,41.537746,0],[114.083982,41.528958,0],[114.032148,41.529595,0],[113.977559,41.506664,0],[113.952827,41.483533,0],[113.930659,41.485573,0],[113.92124,41.457271,0],[113.884911,41.438141,0],[113.8712,41.413327,0],[113.918229,41.40382,0],[113.943985,41.390802,0],[113.93399,41.376823,0],[113.937514,41.356647,0],[113.923354,41.33934,0],[113.926622,41.326309,0],[113.89952,41.316214,0],[113.922585,41.291162,0],[113.936297,41.294805,0],[113.951226,41.282916,0],[113.952956,41.254269,0],[113.971536,41.239814,0],[113.976854,41.266676,0],[113.985824,41.270385,0],[114.007032,41.250752,0],[114.016259,41.232073,0],[114.000625,41.224011,0],[113.996781,41.192458,0],[113.973651,41.174275,0],[113.920407,41.172034,0],[113.877927,41.115593,0],[113.863383,41.106042,0],[113.820327,41.101619,0],[113.823402,41.093093,0],[113.868445,41.068853,0],[113.90567,41.034081,0],[113.922585,41.024391,0],[113.972946,40.982981,0],[113.97647,40.961206,0],[113.991142,40.940195,0],[114.000753,40.947521,0],[114.011773,40.935311,0],[114.057457,40.925092,0],[114.041375,40.917378,0],[114.052203,40.893395,0],[114.052844,40.870304,0],[114.073539,40.857308,0],[114.069694,40.846948,0],[114.044771,40.831115,0],[114.081163,40.790486,0],[114.104421,40.797571,0],[114.104165,40.768068,0],[114.134727,40.737263,0],[114.147285,40.73346,0],[114.18323,40.671675,0],[114.200081,40.662189,0],[114.216163,40.63437,0],[114.209307,40.629721,0],[114.236153,40.606991,0],[114.258258,40.610672,0],[114.282926,40.590778,0],[114.273379,40.553815,0],[114.293433,40.551424,0],[114.296381,40.535973,0],[114.285617,40.525822,0],[114.282605,40.495164,0],[114.267228,40.474199,0],[114.275429,40.458019,0],[114.299648,40.440086,0],[114.28709,40.423444,0],[114.314449,40.369604,0],[114.344435,40.36954,0],[114.382237,40.362085,0],[114.390374,40.351259,0],[114.446565,40.372845,0],[114.470784,40.349703,0],[114.499296,40.354047,0],[114.530627,40.3451,0],[114.526463,40.32357,0],[114.510957,40.303006,0],[114.469951,40.268093,0],[114.406392,40.246149,0],[114.362567,40.250109,0],[114.335144,40.245434,0],[114.293113,40.230108,0],[114.255247,40.236213,0],[114.240126,40.221924,0],[114.235833,40.198341,0],[114.180026,40.191517,0],[114.145107,40.177349,0],[114.123963,40.178129,0],[114.123387,40.188723,0],[114.097758,40.193597,0],[114.068029,40.179754,0],[114.089108,40.121491,0],[114.101218,40.10874,0],[114.091159,40.075288,0],[114.043809,40.056863,0],[114.019462,40.102819,0],[113.989476,40.112383,0],[113.973843,40.097157,0],[113.981019,40.073205,0],[113.975573,40.051068,0],[113.954878,40.030812,0],[113.922457,40.026578,0],[113.914641,40.005924,0],[113.932004,40.009443,0],[113.960452,40.000906,0],[114.021256,39.991782,0],[114.029457,39.985395,0],[114.02824,39.959316,0],[114.047397,39.916135,0],[114.067772,39.922334,0],[114.089941,39.910197,0],[114.102884,39.912873,0],[114.174132,39.897602,0],[114.211998,39.918745,0],[114.229426,39.899495,0],[114.19944,39.87939,0],[114.224877,39.851704,0],[114.276967,39.874494,0],[114.286065,39.858235,0],[114.328929,39.865548,0],[114.349432,39.862806,0],[114.395436,39.867246,0],[114.406712,39.83348,0],[114.390695,39.818584,0],[114.408827,39.782375,0],[114.408122,39.651956,0],[114.431636,39.614021,0],[114.474757,39.613759,0],[114.495836,39.608188,0],[114.515378,39.564983,0],[114.557025,39.581442,0],[114.568942,39.573967,0],[114.563432,39.558162,0],[114.58432,39.585835,0],[114.604887,39.567869,0],[114.633527,39.555866,0],[114.654991,39.599209,0],[114.680748,39.588064,0],[114.712079,39.594358,0],[114.716756,39.618674,0],[114.760645,39.617036,0],[114.783775,39.609499,0],[114.821642,39.61022,0],[114.838429,39.589179,0],[114.891032,39.634728,0],[114.936331,39.66368,0],[114.961895,39.666103,0],[114.987396,39.67802,0],[115.011487,39.674746,0],[115.03199,39.702373,0],[115.050058,39.709245,0],[115.095293,39.704795,0],[115.138734,39.688627,0],[115.168847,39.672651,0],[115.179163,39.679592,0],[115.177625,39.700475,0],[115.215043,39.708067,0],[115.250859,39.73882,0],[115.283216,39.745165,0],[115.312945,39.783551,0],[115.342867,39.79205,0],[115.330052,39.80656,0],[115.345237,39.821851,0],[115.343251,39.837857,0],[115.365676,39.867507,0],[115.364523,39.885331,0],[115.399891,39.891336,0],[115.40162,39.903802,0],[115.426801,39.950056,0],[115.428531,39.984352,0],[115.450123,39.99289,0],[115.442178,40.010876,0],[115.454544,40.029705,0],[115.478571,40.036153,0],[115.528034,40.07633,0],[115.555457,40.082644,0],[115.553727,40.091691,0],[115.575576,40.100997,0],[115.590697,40.096376,0],[115.59909,40.119995,0],[115.641762,40.115897,0],[115.644581,40.12663,0],[115.715893,40.133395,0],[115.734858,40.129492,0],[115.754849,40.145427,0],[115.754336,40.163243,0],[115.773045,40.176179,0],[115.806555,40.15323,0],[115.847817,40.147052,0],[115.844421,40.168053,0],[115.855506,40.188853,0],[115.870306,40.186058,0],[115.886324,40.206657,0],[115.883121,40.216143,0],[115.898498,40.234524,0],[115.911953,40.23446,0],[115.930085,40.254524,0],[115.960007,40.256667,0],[115.968913,40.264263,0],[115.93976,40.304434,0],[115.943156,40.311375,0],[115.922653,40.325905,0],[115.918296,40.353917,0],[115.864476,40.359363,0],[115.861849,40.373428,0],[115.846856,40.375113,0],[115.796431,40.426812,0],[115.770418,40.444165,0],[115.769841,40.468051,0],[115.782207,40.492058,0],[115.736012,40.503832,0],[115.755041,40.540046,0],[115.792203,40.561313,0],[115.819818,40.559374,0],[115.827378,40.587031,0],[115.846151,40.593039,0],[115.885427,40.595235,0],[115.907788,40.617324,0],[115.971988,40.602341,0],[115.981407,40.579665,0],[116.005113,40.584124,0],[116.0285,40.607314,0],[116.030037,40.597367,0],[116.062714,40.610285,0],[116.099363,40.630561,0],[116.121724,40.62914,0],[116.112562,40.648507,0],[116.136909,40.667674,0],[116.162025,40.662383,0],[116.171316,40.695996,0],[116.191947,40.724241,0],[116.218857,40.742807,0],[116.235003,40.783143,0],[116.247946,40.791839,0],[116.269602,40.777152,0],[116.273446,40.762913,0],[116.290938,40.763815,0],[116.307917,40.752152,0],[116.317015,40.772256,0],[116.379806,40.77232,0],[116.414276,40.777925,0],[116.416519,40.769357,0],[116.453937,40.765877,0],[116.465854,40.774511,0],[116.456564,40.798665,0],[116.43683,40.820751,0],[116.40646,40.833368,0],[116.399988,40.84978,0],[116.334443,40.904648,0],[116.334571,40.921749,0],[116.365069,40.943216,0]]]},"properties":{"name":"张家口市","_color":"#1331c6","center":[115.00794097555014,40.89430440831297,0]}}]}