{"type":"FeatureCollection","features":[{"type":"Feature","geometry":{"type":"MultiPolygon","coordinates":[[[[117.467487,40.649738,0],[117.412669,40.605226,0],[117.429915,40.576141,0],[117.389879,40.561593,0],[117.348611,40.581141,0],[117.348611,40.581141,0],[117.269771,40.560684,0],[117.247597,40.539766,0],[117.262995,40.512927,0],[117.208793,40.501552,0],[117.263611,40.442367,0],[117.234046,40.417312,0],[117.226039,40.368997,0],[117.243285,40.369453,0],[117.271618,40.325211,0],[117.271618,40.325211,0],[117.295024,40.2782,0],[117.331365,40.289613,0],[117.351075,40.229786,0],[117.389879,40.227958,0],[117.415748,40.248973,0],[117.450241,40.252627,0],[117.505059,40.227044,0],[117.548791,40.232527,0],[117.571581,40.219276,0],[117.576508,40.178593,0],[117.609769,40.160301,0],[117.609769,40.160301,0],[117.613465,40.158014,0],[117.613465,40.158014,0],[117.651653,40.122786,0],[117.651653,40.122786,0],[117.654117,40.114548,0],[117.654117,40.114548,0],[117.655965,40.109514,0],[117.655965,40.109514,0],[117.675059,40.082045,0],[117.71879,40.082045,0],[117.71879,40.082045,0],[117.752667,40.081588,0],[117.776073,40.059605,0],[117.74774,40.047236,0],[117.744044,40.018368,0],[117.768681,40.022034,0],[117.768681,40.022034,0],[117.793319,40.005534,0],[117.793319,40.005534,0],[117.795167,39.996823,0],[117.795167,39.996823,0],[117.781616,39.966558,0],[117.781616,39.966558,0],[117.756363,39.965181,0],[117.691073,39.984902,0],[117.671363,39.973896,0],[117.614697,39.97252,0],[117.594987,39.994531,0],[117.594987,39.994531,0],[117.546327,39.999116,0],[117.534625,39.954631,0],[117.514914,39.946832,0],[117.513067,39.910576,0],[117.513067,39.910576,0],[117.512451,39.90874,0],[117.512451,39.90874,0],[117.508139,39.901854,0],[117.508139,39.901854,0],[117.529081,39.859144,0],[117.529081,39.859144,0],[117.561726,39.799856,0],[117.546327,39.775943,0],[117.56111,39.754782,0],[117.595603,39.74604,0],[117.57774,39.726711,0],[117.627015,39.703693,0],[117.668899,39.666849,0],[117.66274,39.636437,0],[117.637486,39.603246,0],[117.654117,39.575113,0],[117.684914,39.58895,0],[117.707088,39.576036,0],[117.715711,39.529892,0],[117.745276,39.547892,0],[117.753899,39.579726,0],[117.753899,39.579726,0],[117.766834,39.598635,0],[117.829659,39.589873,0],[117.868464,39.59679,0],[117.933753,39.574191,0],[117.904804,39.533585,0],[117.912195,39.517428,0],[117.912195,39.517428,0],[117.899877,39.474479,0],[117.870311,39.455074,0],[117.871543,39.411625,0],[117.846906,39.407926,0],[117.852449,39.380639,0],[117.805022,39.373237,0],[117.810565,39.354729,0],[117.850601,39.363984,0],[117.850601,39.363984,0],[117.854297,39.328348,0],[117.854913,39.328348,0],[117.854297,39.328348,0],[117.854913,39.328348,0],[117.88879,39.332051,0],[117.919587,39.318162,0],[117.919587,39.318162,0],[117.965782,39.314921,0],[117.965782,39.314921,0],[117.973173,39.312143,0],[117.973173,39.312143,0],[117.979333,39.300566,0],[117.979333,39.300566,0],[117.982412,39.298714,0],[117.982412,39.298714,0],[118.024296,39.289451,0],[118.024296,39.289451,0],[118.036615,39.264898,0],[118.064948,39.256094,0],[118.064948,39.231065,0],[118.034767,39.218548,0],[118.026144,39.201854,0],[118.070492,39.213911,0],[118.077883,39.201854,0],[118.12531,39.182838,0],[118.162883,39.136433,0],[118.1906,39.080708,0],[118.225092,39.034701,0],[118.319331,39.009594,0],[118.366143,39.016104,0],[118.377845,38.971917,0],[118.491178,38.909077,0],[118.539837,38.910008,0],[118.604511,38.971452,0],[118.570634,38.999363,0],[118.533062,39.090928,0],[118.588497,39.107648,0],[118.578642,39.130863,0],[118.637156,39.157319,0],[118.76096,39.133648,0],[118.814546,39.138754,0],[118.857662,39.162888,0],[118.897082,39.151286,0],[118.920488,39.171703,0],[118.951285,39.178662,0],[118.896466,39.139683,0],[118.890307,39.118792,0],[118.926031,39.123435,0],[118.97777,39.163352,0],[119.023966,39.187012,0],[119.038132,39.211593,0],[119.096031,39.24219,0],[119.121284,39.281576,0],[119.185342,39.342234,0],[119.272805,39.363521,0],[119.317153,39.4107,0],[119.316537,39.437051,0],[119.269726,39.498497,0],[119.366428,39.734996,0],[119.474217,39.813189,0],[119.536427,39.809052,0],[119.520413,39.840306,0],[119.540739,39.888079,0],[119.588166,39.910576,0],[119.620195,39.904609,0],[119.642369,39.925264,0],[119.681789,39.922511,0],[119.726137,39.940867,0],[119.787115,39.950502,0],[119.820375,39.979399,0],[119.842549,39.956007,0],[119.872114,39.960594,0],[119.854252,39.98857,0],[119.845629,40.000949,0],[119.845629,40.000949,0],[119.854252,40.033033,0],[119.81668,40.050443,0],[119.81668,40.050443,0],[119.787115,40.041739,0],[119.787115,40.041739,0],[119.783419,40.046778,0],[119.783419,40.046778,0],[119.772332,40.08113,0],[119.736608,40.104936,0],[119.760629,40.136056,0],[119.745847,40.207851,0],[119.716898,40.195966,0],[119.671934,40.23938,0],[119.639289,40.231613,0],[119.639289,40.231613,0],[119.651608,40.271808,0],[119.598021,40.334335,0],[119.586934,40.375381,0],[119.604797,40.455119,0],[119.553674,40.502007,0],[119.572152,40.523846,0],[119.559217,40.547952,0],[119.503783,40.553864,0],[119.477913,40.533399,0],[119.429254,40.540221,0],[119.30237,40.530215,0],[119.256175,40.543404,0],[119.22045,40.569322,0],[119.230921,40.603863,0],[119.177951,40.609315,0],[119.162552,40.600228,0],[119.14469,40.632482,0],[119.184726,40.680153,0],[119.165632,40.69286,0],[119.115125,40.666536,0],[119.054763,40.664721,0],[119.028277,40.692406,0],[119.011031,40.687414,0],[118.96114,40.72008,0],[118.950053,40.747743,0],[118.895234,40.75409,0],[118.907553,40.775394,0],[118.878604,40.783098,0],[118.845959,40.822057,0],[118.873061,40.847866,0],[118.90201,40.960946,0],[118.916792,40.969984,0],[118.977154,40.959138,0],[118.977154,40.959138,0],[119.00056,40.967273,0],[119.013495,41.007479,0],[118.951901,41.018317,0],[118.937118,41.052625,0],[118.964836,41.079246,0],[119.037516,41.067516,0],[119.080632,41.095936,0],[119.081248,41.131555,0],[119.126212,41.138767,0],[119.189038,41.198234,0],[119.169943,41.222996,0],[119.204436,41.222546,0],[119.209364,41.244599,0],[119.2494,41.279689,0],[119.239545,41.31431,0],[119.211827,41.308016,0],[119.197661,41.282837,0],[119.168712,41.294978,0],[119.092951,41.293629,0],[118.980234,41.305769,0],[118.949437,41.317906,0],[118.890923,41.300823,0],[118.844727,41.342622,0],[118.843496,41.374516,0],[118.770199,41.352956,0],[118.741866,41.324198,0],[118.677192,41.35026,0],[118.629765,41.346666,0],[118.528135,41.355202,0],[118.412338,41.331838,0],[118.380309,41.312062,0],[118.348896,41.342622,0],[118.361215,41.384844,0],[118.348896,41.428384,0],[118.327338,41.450816,0],[118.271904,41.471446,0],[118.315636,41.512688,0],[118.302701,41.55256,0],[118.215237,41.59554,0],[118.206614,41.650566,0],[118.159187,41.67605,0],[118.155491,41.712694,0],[118.132702,41.733241,0],[118.140093,41.784134,0],[118.178281,41.814917,0],[118.236179,41.80778,0],[118.247266,41.773869,0],[118.29223,41.772976,0],[118.335346,41.845241,0],[118.340273,41.87243,0],[118.268824,41.930336,0],[118.306396,41.940131,0],[118.313788,41.98819,0],[118.291614,42.007759,0],[118.239875,42.024655,0],[118.286686,42.033991,0],[118.296541,42.057545,0],[118.27252,42.083312,0],[118.239259,42.092639,0],[118.212774,42.081091,0],[118.220165,42.058434,0],[118.194296,42.031324,0],[118.116687,42.037102,0],[118.155491,42.081091,0],[118.097593,42.105072,0],[118.089586,42.12283,0],[118.106216,42.172082,0],[118.033535,42.199132,0],[117.977485,42.229716,0],[117.974405,42.25054,0],[118.047702,42.280656,0],[118.060021,42.298364,0],[118.008898,42.346595,0],[118.024296,42.385064,0],[117.997811,42.416884,0],[117.874007,42.510038,0],[117.856761,42.539148,0],[117.797631,42.585431,0],[117.801326,42.612744,0],[117.779768,42.61847,0],[117.708935,42.588515,0],[117.667051,42.582347,0],[117.60053,42.603054,0],[117.537088,42.603054,0],[117.530313,42.590278,0],[117.475494,42.602613,0],[117.435458,42.585431,0],[117.434226,42.557224,0],[117.387415,42.517537,0],[117.387415,42.517537,0],[117.410205,42.519743,0],[117.413284,42.471645,0],[117.390495,42.461933,0],[117.332596,42.46105,0],[117.332596,42.46105,0],[117.275314,42.481797,0],[117.275314,42.481797,0],[117.188467,42.468114,0],[117.188467,42.468114,0],[117.135496,42.468996,0],[117.09546,42.484004,0],[117.080061,42.463699,0],[117.080061,42.463699,0],[117.01662,42.456193,0],[117.01662,42.456193,0],[117.009228,42.44957,0],[117.009228,42.44957,0],[117.005533,42.43367,0],[117.005533,42.43367,0],[116.99075,42.425719,0],[116.99075,42.425719,0],[116.974736,42.426603,0],[116.974736,42.426603,0],[116.97104,42.427486,0],[116.97104,42.427486,0],[116.944555,42.415116,0],[116.944555,42.415116,0],[116.936547,42.410256,0],[116.936547,42.410256,0],[116.921765,42.403628,0],[116.921765,42.403628,0],[116.910062,42.395231,0],[116.910062,42.395231,0],[116.910678,42.394789,0],[116.910678,42.394789,0],[116.886656,42.366496,0],[116.897743,42.297479,0],[116.918685,42.229716,0],[116.903287,42.190708,0],[116.789338,42.200462,0],[116.825062,42.155669,0],[116.850316,42.156556,0],[116.890352,42.092639,0],[116.879881,42.018431,0],[116.796113,41.977958,0],[116.748686,41.984186,0],[116.727744,41.951259,0],[116.66923,41.947698,0],[116.639049,41.929891,0],[116.597165,41.935679,0],[116.553433,41.928555,0],[116.510933,41.974399,0],[116.4826,41.975734,0],[116.453651,41.945917,0],[116.393289,41.942802,0],[116.414231,41.982407,0],[116.373579,42.009983,0],[116.310137,41.997086,0],[116.298434,41.96817,0],[116.223906,41.932562,0],[116.212819,41.885352,0],[116.194341,41.861734,0],[116.122892,41.861734,0],[116.106877,41.831419,0],[116.129051,41.805996,0],[116.09887,41.776547,0],[116.034196,41.782795,0],[116.007095,41.79752,0],[116.007095,41.797966,0],[116.007095,41.79752,0],[116.007095,41.797966,0],[115.994776,41.828743,0],[115.954124,41.874213,0],[115.916552,41.945027,0],[115.85311,41.927665,0],[115.834632,41.93835,0],[115.811226,41.912525,0],[115.726227,41.870202,0],[115.688038,41.867528,0],[115.654162,41.829189,0],[115.57409,41.80555,0],[115.519887,41.76762,0],[115.488474,41.760924,0],[115.42996,41.728775,0],[115.346808,41.712247,0],[115.319091,41.691693,0],[115.360975,41.661297,0],[115.345576,41.635807,0],[115.377605,41.603148,0],[115.310468,41.592854,0],[115.290142,41.622835,0],[115.26612,41.616124,0],[115.256881,41.580768,0],[115.20391,41.571367,0],[115.195287,41.602253,0],[115.0992,41.62373,0],[115.056085,41.602253,0],[115.016049,41.615229,0],[114.860832,41.60091,0],[114.895325,41.636255,0],[114.902716,41.695715,0],[114.89594,41.76762,0],[114.868839,41.813579,0],[114.922426,41.825175,0],[114.939056,41.846132,0],[114.923658,41.871093,0],[114.915035,41.960605,0],[114.9021,42.015763,0],[114.860832,42.054879,0],[114.86268,42.097967,0],[114.825723,42.139695,0],[114.79431,42.149457,0],[114.789383,42.130819,0],[114.75489,42.115727,0],[114.675434,42.12061,0],[114.647717,42.109512,0],[114.560254,42.132595,0],[114.510978,42.110844,0],[114.502355,42.06732,0],[114.480181,42.064654,0],[114.467863,42.025989,0],[114.511594,41.981962,0],[114.478334,41.951704,0],[114.419203,41.942356,0],[114.352066,41.953484,0],[114.343443,41.926774,0],[114.282465,41.863517,0],[114.200545,41.789934,0],[114.215328,41.75646,0],[114.206704,41.7386,0],[114.237501,41.698843,0],[114.215328,41.68499,0],[114.259059,41.623282,0],[114.226414,41.616572,0],[114.221487,41.582111,0],[114.230726,41.513584,0],[114.101379,41.537779,0],[114.032394,41.529715,0],[113.976959,41.505966,0],[113.953553,41.483553,0],[113.933227,41.487139,0],[113.919677,41.454404,0],[113.877793,41.431076,0],[113.871017,41.413126,0],[113.94493,41.392477,0],[113.92522,41.325546,0],[113.899351,41.316108,0],[113.914749,41.294529,0],[113.95109,41.282837,0],[113.971416,41.239649,0],[113.992357,41.269794,0],[114.016379,41.231999,0],[113.996669,41.19238,0],[113.960945,41.171211,0],[113.920293,41.172112,0],[113.877793,41.115777,0],[113.819279,41.09774,0],[113.868554,41.06887,0],[113.973263,40.983087,0],[113.994821,40.938798,0],[114.057647,40.925234,0],[114.041633,40.917546,0],[114.055183,40.867782,0],[114.073661,40.857372,0],[114.044712,40.830661,0],[114.080437,40.790348,0],[114.104458,40.797597,0],[114.103227,40.770861,0],[114.134639,40.737314,0],[114.162357,40.71373,0],[114.183299,40.67153,0],[114.236269,40.607043,0],[114.283081,40.590685,0],[114.273842,40.552954,0],[114.293552,40.55159,0],[114.282465,40.494725,0],[114.267066,40.474242,0],[114.299711,40.44009,0],[114.286161,40.425057,0],[114.31203,40.372645,0],[114.381015,40.36307,0],[114.390254,40.351213,0],[114.438914,40.371733,0],[114.481413,40.34802,0],[114.530688,40.345283,0],[114.510978,40.302851,0],[114.46971,40.268155,0],[114.406269,40.246232,0],[114.362537,40.249886,0],[114.292936,40.230242,0],[114.255364,40.236182,0],[114.235654,40.198252,0],[114.180219,40.191395,0],[114.135871,40.175392,0],[114.097683,40.193681,0],[114.073046,40.168533,0],[114.073046,40.168533,0],[114.101995,40.099901,0],[114.086596,40.071513,0],[114.045944,40.056856,0],[114.018227,40.103563,0],[113.989278,40.11226,0],[113.959097,40.033491,0],[113.910438,40.015618,0],[114.029314,39.985819,0],[114.028082,39.959218,0],[114.047176,39.916085,0],[114.067502,39.922511,0],[114.17406,39.897722,0],[114.212248,39.918839,0],[114.229494,39.899558,0],[114.204241,39.885324,0],[114.215943,39.8619,0],[114.286776,39.871087,0],[114.285545,39.858225,0],[114.395182,39.867412,0],[114.406885,39.833413,0],[114.390254,39.819165,0],[114.41674,39.775943,0],[114.409964,39.761683,0],[114.408117,39.652106,0],[114.431522,39.613851,0],[114.49558,39.608318,0],[114.51529,39.564964,0],[114.568877,39.573729,0],[114.532536,39.486027,0],[114.501739,39.476789,0],[114.496812,39.438437,0],[114.469095,39.400989,0],[114.466631,39.329736,0],[114.430906,39.307513,0],[114.437066,39.259337,0],[114.416124,39.242654,0],[114.47587,39.21623,0],[114.443841,39.174023,0],[114.388406,39.176807,0],[114.360689,39.134112,0],[114.369928,39.107648,0],[114.345907,39.075133,0],[114.252284,39.073739,0],[114.180835,39.049111,0],[114.157429,39.061194,0],[114.10877,39.052364,0],[114.082901,39.09325,0],[114.082901,39.09325,0],[114.064422,39.094179,0],[114.050872,39.135969,0],[114.006524,39.122971,0],[113.994821,39.095572,0],[113.961561,39.100681,0],[113.930148,39.063517,0],[113.898119,39.067699,0],[113.80696,38.989595,0],[113.776779,38.986804,0],[113.76754,38.959819,0],[113.776163,38.885788,0],[113.795257,38.860628,0],[113.855619,38.828933,0],[113.836525,38.795824,0],[113.839605,38.7585,0],[113.802648,38.763166,0],[113.775547,38.709949,0],[113.720728,38.713218,0],[113.70225,38.651551,0],[113.612939,38.645942,0],[113.603084,38.587024,0],[113.561816,38.558483,0],[113.546417,38.492936,0],[113.583374,38.459671,0],[113.537794,38.417952,0],[113.525475,38.383245,0],[113.557504,38.343359,0],[113.54457,38.270569,0],[113.570439,38.237202,0],[113.598772,38.22733,0],[113.64312,38.232031,0],[113.678844,38.20523,0],[113.711489,38.213695,0],[113.720728,38.174656,0],[113.797105,38.162894,0],[113.831597,38.16854,0],[113.811271,38.117707,0],[113.876561,38.055059,0],[113.872249,37.990471,0],[113.901198,37.984811,0],[113.936307,37.922993,0],[113.959097,37.906468,0],[113.976959,37.816696,0],[114.006524,37.813386,0],[114.044712,37.761834,0],[113.996669,37.730128,0],[113.993589,37.706932,0],[114.068118,37.721608,0],[114.12848,37.698409,0],[114.139567,37.675676,0],[114.115545,37.619761,0],[114.118625,37.59084,0],[114.036705,37.494037,0],[114.014531,37.42468,0],[113.973879,37.40329,0],[113.962792,37.355734,0],[113.90243,37.310052,0],[113.886416,37.239095,0],[113.853155,37.215269,0],[113.832213,37.167594,0],[113.773083,37.151855,0],[113.773699,37.107004,0],[113.758301,37.075497,0],[113.788482,37.059739,0],[113.771851,37.016745,0],[113.791561,36.98759,0],[113.76138,36.956034,0],[113.792793,36.894796,0],[113.773083,36.85506,0],[113.731815,36.858891,0],[113.731815,36.878521,0],[113.696707,36.882351,0],[113.676381,36.855539,0],[113.680692,36.789907,0],[113.600004,36.752995,0],[113.549497,36.752515,0],[113.535946,36.732373,0],[113.499606,36.740527,0],[113.465113,36.707908,0],[113.506997,36.705029,0],[113.476816,36.655114,0],[113.486671,36.635427,0],[113.54457,36.62342,0],[113.539642,36.594116,0],[113.569823,36.585947,0],[113.588917,36.547974,0],[113.559968,36.528741,0],[113.554425,36.494589,0],[113.587069,36.460904,0],[113.635729,36.451277,0],[113.670221,36.425278,0],[113.708409,36.423352,0],[113.731199,36.363135,0],[113.755221,36.366026,0],[113.813119,36.332285,0],[113.856851,36.329392,0],[113.84946,36.347711,0],[113.882104,36.353977,0],[113.911054,36.314927,0],[113.962792,36.353977,0],[113.981887,36.31782,0],[114.002828,36.334214,0],[114.056415,36.329392,0],[114.04348,36.303353,0],[114.080437,36.269585,0],[114.129096,36.280199,0],[114.175907,36.264759,0],[114.170364,36.245938,0],[114.170364,36.245938,0],[114.203009,36.245456,0],[114.2104,36.272962,0],[114.241197,36.251247,0],[114.257827,36.263794,0],[114.299095,36.245938,0],[114.345291,36.255591,0],[114.356378,36.230492,0],[114.408117,36.224699,0],[114.417356,36.205868,0],[114.466015,36.197658,0],[114.480181,36.177855,0],[114.533152,36.171575,0],[114.586739,36.141133,0],[114.588587,36.118414,0],[114.640326,36.137266,0],[114.720398,36.140166,0],[114.734564,36.15563,0],[114.771521,36.124699,0],[114.857752,36.127599,0],[114.858368,36.144516,0],[114.912571,36.140649,0],[114.926737,36.089403,0],[114.914419,36.052155,0],[114.998186,36.069572,0],[115.04623,36.112613,0],[115.048693,36.161912,0],[115.06286,36.178338,0],[115.104744,36.172058,0],[115.12507,36.209731,0],[115.1842,36.193312,0],[115.201446,36.210214,0],[115.201446,36.210214,0],[115.202678,36.209248,0],[115.202678,36.209248,0],[115.202678,36.208765,0],[115.202678,36.208765,0],[115.242098,36.19138,0],[115.279055,36.13775,0],[115.30246,36.127599,0],[115.312931,36.088436,0],[115.365902,36.099074,0],[115.376989,36.128083,0],[115.450902,36.152248,0],[115.465068,36.170125,0],[115.483547,36.148865,0],[115.474923,36.248352,0],[115.466916,36.258969,0],[115.466916,36.258969,0],[115.462605,36.276339,0],[115.417025,36.292742,0],[115.423185,36.32216,0],[115.366518,36.30914,0],[115.368982,36.342409,0],[115.340033,36.398307,0],[115.297533,36.413239,0],[115.317243,36.454166,0],[115.291374,36.460423,0],[115.272895,36.497476,0],[115.33141,36.550378,0],[115.355431,36.627262,0],[115.365902,36.621979,0],[115.420105,36.686795,0],[115.451518,36.702151,0],[115.479851,36.760187,0],[115.524815,36.763543,0],[115.683727,36.808117,0],[115.71206,36.883308,0],[115.75764,36.902453,0],[115.79706,36.968945,0],[115.776734,36.992848,0],[115.85619,37.060694,0],[115.888219,37.112254,0],[115.879596,37.150901,0],[115.91224,37.177132,0],[115.909777,37.20669,0],[115.969523,37.239572,0],[115.975682,37.337179,0],[116.024341,37.360015,0],[116.085935,37.373809,0],[116.106261,37.368577,0],[116.169087,37.384271,0],[116.193109,37.365723,0],[116.236224,37.361442,0],[116.2855,37.404241,0],[116.226369,37.428007,0],[116.243,37.447965,0],[116.224522,37.479791,0],[116.240536,37.489764,0],[116.240536,37.489764,0],[116.27626,37.466967,0],[116.290427,37.484065,0],[116.278724,37.524895,0],[116.295355,37.554316,0],[116.336007,37.581355,0],[116.36742,37.566177,0],[116.379738,37.522047,0],[116.38097,37.522522,0],[116.379738,37.522047,0],[116.38097,37.522522,0],[116.433941,37.473142,0],[116.448108,37.503059,0],[116.4826,37.521573,0],[116.575607,37.610754,0],[116.604556,37.624975,0],[116.66307,37.686096,0],[116.679085,37.728708,0],[116.724664,37.744327,0],[116.753613,37.77035,0],[116.753613,37.793054,0],[116.804736,37.848837,0],[116.837997,37.835132,0],[116.919301,37.846002,0],[117.027091,37.832296,0],[117.074518,37.848837,0],[117.150278,37.839385,0],[117.185387,37.849783,0],[117.271618,37.839858,0],[117.320278,37.861596,0],[117.400966,37.844584,0],[117.438538,37.854035,0],[117.481038,37.914967,0],[117.513067,37.94329,0],[117.524154,37.989527,0],[117.557414,38.046105,0],[117.557414,38.046105,0],[117.586979,38.071551,0],[117.704624,38.076262,0],[117.746508,38.12524,0],[117.771145,38.134655,0],[117.766834,38.158658,0],[117.789007,38.180772,0],[117.808718,38.22827,0],[117.848754,38.255062,0],[117.895565,38.301572,0],[117.948536,38.346644,0],[117.957775,38.376208,0],[117.937449,38.387936,0],[117.84629,38.368232,0],[117.781,38.373862,0],[117.730493,38.424985,0],[117.72495,38.457328,0],[117.678754,38.477008,0],[117.644878,38.52759,0],[117.68553,38.539293,0],[117.638102,38.54491,0],[117.639334,38.626776,0],[117.55803,38.613683,0],[117.47919,38.616489,0],[117.432379,38.601524,0],[117.368937,38.564566,0],[117.25314,38.556143,0],[117.238358,38.580943,0],[117.258684,38.608072,0],[117.258684,38.608072,0],[117.213104,38.639866,0],[117.213104,38.639866,0],[117.183539,38.61836,0],[117.183539,38.61836,0],[117.150894,38.617892,0],[117.109626,38.584685,0],[117.070822,38.608072,0],[117.055424,38.639398,0],[117.068358,38.680522,0],[117.038793,38.688464,0],[116.95133,38.689398,0],[116.948866,38.689398,0],[116.950714,38.689398,0],[116.95133,38.689398,0],[116.950714,38.689398,0],[116.948866,38.689398,0],[116.877417,38.680522,0],[116.858939,38.741231,0],[116.794265,38.744498,0],[116.794265,38.744498,0],[116.746222,38.754299,0],[116.737599,38.784629,0],[116.75115,38.831264,0],[116.723432,38.852706,0],[116.722201,38.896968,0],[116.708034,38.931892,0],[116.72836,38.975174,0],[116.754845,39.003084,0],[116.754229,39.034701,0],[116.754229,39.034701,0],[116.783179,39.05097,0],[116.783179,39.05097,0],[116.812744,39.05097,0],[116.812744,39.05097,0],[116.871874,39.054688,0],[116.912526,39.110898,0],[116.91191,39.111362,0],[116.91191,39.111362,0],[116.912526,39.110898,0],[116.909446,39.150822,0],[116.870026,39.153607,0],[116.855859,39.215766,0],[116.881729,39.225966,0],[116.881729,39.225966,0],[116.87249,39.291304,0],[116.889736,39.338068,0],[116.870642,39.357506,0],[116.829374,39.338994,0],[116.818287,39.3737,0],[116.840461,39.378326,0],[116.839845,39.413474,0],[116.876185,39.43474,0],[116.832454,39.435664,0],[116.785026,39.465702,0],[116.820751,39.482332,0],[116.819519,39.528507,0],[116.78749,39.554352,0],[116.808432,39.576497,0],[116.812128,39.615695,0],[116.79057,39.595868,0],[116.748686,39.619844,0],[116.709266,39.618,0],[116.726512,39.595407,0],[116.726512,39.595407,0],[116.724048,39.59264,0],[116.723432,39.59264,0],[116.724048,39.59264,0],[116.723432,39.59264,0],[116.664918,39.605552,0],[116.620571,39.601863,0],[116.592237,39.621227,0],[116.592237,39.621227,0],[116.524484,39.596329,0],[116.50847,39.551122,0],[116.473361,39.552968,0],[116.478289,39.535431,0],[116.437637,39.526661,0],[116.443796,39.510041,0],[116.401912,39.528046,0],[116.411767,39.482794,0],[116.444412,39.482332,0],[116.454883,39.453226,0],[116.434557,39.442597,0],[116.361876,39.455074,0],[116.361876,39.455074,0],[116.337854,39.455536,0],[116.307057,39.488337,0],[116.257782,39.500344,0],[116.240536,39.564041,0],[116.198652,39.589412,0],[116.151841,39.583416,0],[116.130283,39.567732,0],[116.09887,39.575113,0],[116.036044,39.571884,0],[116.026189,39.587567,0],[115.995392,39.576958,0],[115.978146,39.595868,0],[115.957204,39.560812,0],[115.910393,39.600479,0],[115.910393,39.600479,0],[115.91532,39.582955,0],[115.91532,39.582955,0],[115.867893,39.546507,0],[115.867893,39.546507,0],[115.828473,39.541431,0],[115.821081,39.522968,0],[115.821081,39.522968,0],[115.806299,39.510041,0],[115.806299,39.510041,0],[115.752712,39.515581,0],[115.738545,39.539585,0],[115.738545,39.540046,0],[115.738545,39.539585,0],[115.738545,39.540046,0],[115.724995,39.5442,0],[115.724995,39.5442,0],[115.722531,39.543738,0],[115.721299,39.543738,0],[115.722531,39.543738,0],[115.722531,39.5442,0],[115.721299,39.543738,0],[115.722531,39.5442,0],[115.720683,39.551122,0],[115.720683,39.551122,0],[115.718835,39.553891,0],[115.718835,39.553891,0],[115.716988,39.56035,0],[115.716988,39.56035,0],[115.699125,39.570039,0],[115.699125,39.570039,0],[115.698509,39.577881,0],[115.698509,39.577881,0],[115.667712,39.615234,0],[115.633836,39.599557,0],[115.633836,39.599557,0],[115.587024,39.589873,0],[115.545756,39.618922,0],[115.518039,39.597252,0],[115.522351,39.640124,0],[115.478619,39.650723,0],[115.478619,39.650723,0],[115.491554,39.670074,0],[115.486626,39.741899,0],[115.439815,39.752022,0],[115.443511,39.785601,0],[115.483547,39.798477,0],[115.483547,39.798477,0],[115.50572,39.784222,0],[115.552532,39.794799,0],[115.567314,39.816407,0],[115.514344,39.837549,0],[115.526046,39.87568,0],[115.515575,39.892212,0],[115.515575,39.892212,0],[115.522967,39.899099,0],[115.481083,39.935819,0],[115.426264,39.950502,0],[115.428728,39.984443,0],[115.450286,39.992697,0],[115.454597,40.029825,0],[115.485394,40.040364,0],[115.527278,40.076092,0],[115.59072,40.096239,0],[115.599959,40.119583,0],[115.75456,40.145663,0],[115.75456,40.145663,0],[115.773654,40.176307,0],[115.806299,40.15344,0],[115.847567,40.147036,0],[115.855574,40.188652,0],[115.870356,40.185909,0],[115.89869,40.234354,0],[115.968907,40.264045,0],[115.95166,40.281852,0],[115.917784,40.354405,0],[115.864197,40.359422,0],[115.771806,40.443734,0],[115.781045,40.49336,0],[115.736082,40.503372,0],[115.755176,40.540221,0],[115.784741,40.55841,0],[115.819849,40.55932,0],[115.827857,40.587504,0],[115.885139,40.595229,0],[115.907929,40.617493,0],[115.971986,40.6025,0],[115.982457,40.578868,0],[116.005247,40.583868,0],[116.09887,40.630665,0],[116.133979,40.666536,0],[116.162928,40.662451,0],[116.171551,40.695582,0],[116.204812,40.740035,0],[116.22021,40.744115,0],[116.247311,40.791707,0],[116.273181,40.762703,0],[116.311369,40.754996,0],[116.316912,40.772221,0],[116.453651,40.765876,0],[116.46597,40.774487,0],[116.438253,40.81934,0],[116.334159,40.90443,0],[116.339702,40.929303,0],[116.370499,40.94377,0],[116.398216,40.90624,0],[116.477057,40.899907,0],[116.447492,40.953715,0],[116.455499,40.980828,0],[116.519557,40.98128,0],[116.519557,40.98128,0],[116.5676,40.992574,0],[116.598397,40.974503,0],[116.623034,41.021026,0],[116.615643,41.053076,0],[116.647672,41.059394,0],[116.688324,41.044501,0],[116.698795,41.021477,0],[116.677853,40.970888,0],[116.722201,40.927495,0],[116.713577,40.909858,0],[116.759773,40.889954,0],[116.81336,40.848319,0],[116.848468,40.839264,0],[116.924229,40.773581,0],[116.926692,40.745022,0],[116.964881,40.709647,0],[117.012308,40.693767,0],[117.11209,40.707379,0],[117.117018,40.70012,0],[117.208177,40.694675,0],[117.278394,40.664267,0],[117.319662,40.657911,0],[117.342451,40.673799,0],[117.408973,40.686961,0],[117.493973,40.675161,0],[117.514914,40.660181,0],[117.501364,40.636569,0],[117.467487,40.649738,0]]],[[[117.210024,40.082045,0],[117.204481,40.069681,0],[117.159517,40.077008,0],[117.140423,40.064185,0],[117.105315,40.074261,0],[117.105315,40.074261,0],[117.051728,40.059605,0],[117.025243,40.030283,0],[116.945171,40.04128,0],[116.927924,40.055024,0],[116.867562,40.041739,0],[116.831222,40.051359,0],[116.820135,40.02845,0],[116.781331,40.034866,0],[116.757925,39.967934,0],[116.782563,39.947749,0],[116.78441,39.891294,0],[116.812128,39.889916,0],[116.865714,39.843982,0],[116.907598,39.832494,0],[116.918069,39.84628,0],[116.949482,39.778703,0],[116.902055,39.763523,0],[116.916837,39.731314,0],[116.887272,39.72533,0],[116.889736,39.687576,0],[116.90575,39.688037,0],[116.932236,39.706456,0],[116.932236,39.706456,0],[116.944555,39.695405,0],[116.944555,39.695405,0],[116.948866,39.680668,0],[116.948866,39.680668,0],[116.964265,39.64335,0],[116.983359,39.638742,0],[116.983359,39.638742,0],[117.016004,39.653949,0],[117.10901,39.625375,0],[117.10901,39.625375,0],[117.152742,39.623532,0],[117.177996,39.645194,0],[117.165061,39.718886,0],[117.165061,39.718886,0],[117.161981,39.748801,0],[117.205713,39.763984,0],[117.15767,39.796638,0],[117.156438,39.817326,0],[117.192162,39.832953,0],[117.251908,39.834332,0],[117.247597,39.860981,0],[117.227887,39.852712,0],[117.162597,39.876598,0],[117.162597,39.876598,0],[117.150894,39.944996,0],[117.198322,39.992697,0],[117.192162,40.066475,0],[117.210024,40.082045,0]]],[[[117.784696,39.376938,0],[117.765602,39.400527,0],[117.699696,39.407463,0],[117.673211,39.386652,0],[117.668899,39.412087,0],[117.614081,39.407001,0],[117.601146,39.419485,0],[117.570965,39.404689,0],[117.521074,39.357043,0],[117.536472,39.338068,0],[117.594987,39.349176,0],[117.669515,39.322792,0],[117.670747,39.357969,0],[117.74466,39.354729,0],[117.784696,39.376938,0]]],[[[118.869365,39.142932,0],[118.82009,39.108576,0],[118.857662,39.098824,0],[118.869365,39.142932,0]]]]},"properties":{"name":"河北省","_color":"#eef7a3","center":[117.47180891458001,39.51032905591951,0]}}]}